X,Y,OBJECTID,FacilityID,Name,Address,City,Zip,Type,Phone,Website,Organics,CSA,Dairy,FarmersMarket,Honey,Meat,OrchardCiderMill,Retail,UPick,ChristmasTree,NativePlants,Alpaca,BreweryWinery,Other,Comment,RevisionDate,NurseryGreenhouse
-9282333.58544512,5283624.81153478,1,231,Sunshine Meadows Farm,2610 Cook Trl,Ortonville,48462,CSA,248-464-1825,http://www.sunshinemeadowsfarm.com,Yes,Yes,No,No,No,No,No,No,No,No,No,No,No,No,"Eggs, grains, vegetables, fruit, herbs, flowers, meat (broilers,ducks,hertiage turkeys)",2013/10/25 00:00:00+00,No
-9263748.39857097,5244029.55557097,2,233,Birmingham Farmers Market,660 N Old Woodward Ave,Birmingham,48009,Farmers Market,248-530-1200,http://www.birminghamfarmersmarket.org,Yes,No,No,Yes,No,No,No,No,No,No,No,No,No,No,,2016/02/26 00:00:00+00,No
-9281150.91345299,5230637.13200329,3,234,Farmington Farmers & Artisans Market,33111 Grand River Ave,Farmington,48335,Farmers Market,248-971-5882,http://www.farmingtonfarmersmarket.com,No,No,No,Yes,No,No,No,No,No,No,No,No,No,No,,2016/02/26 00:00:00+00,No
-9276612.07243874,5259322.15988495,4,235,Oakland County Farmers Market,2350 Pontiac Lake Rd,Waterford,48328,Farmers Market,248-858-5495,http://www.oakgov.com/parks/parksandtrails/farmers-market/Pages/default.aspx,No,No,No,Yes,No,No,No,No,No,No,No,No,No,No,,2017/06/27 00:00:00+00,No
-9254224.41053278,5263259.28196539,5,237,Rochester Farmers Market,202 E 3rd St,Rochester,48307,Farmers Market,248-656-0060,http://www.downtownrochestermi.com,No,No,No,Yes,No,No,No,No,No,No,No,No,No,No,,2016/02/26 00:00:00+00,No
-9255223.21306337,5234574.21298323,6,238,Royal Oak Farmers Market,316 E 11 Mile Rd,Royal Oak,48067,Farmers Market,248-246-3276,http://www.romi.gov/389/Farmers-Market,No,No,No,Yes,No,No,No,No,No,No,No,No,No,No,,2017/06/27 00:00:00+00,No
-9254640.17306794,5272695.27788547,7,240,Fogler’s Greenhouse & Farm Market,3979 N Rochester Rd,Rochester,48306,Farmers Market,248-652-3614,http://www.foglersgreenhouse.com,No,No,No,Yes,No,No,No,No,No,No,No,No,No,No,<Null>,2015/09/04 00:00:00+00,No
-9254081.44485463,5253233.61695558,8,241,Peacock's Poultry Farm,6355 Rochester Rd,Troy,48085,Meat,"248-879-0020
",http://www.peacockspoultryfarm.com,No,No,No,No,No,Yes,No,No,No,No,No,No,No,No,"Poultry, lamb/veal, pork, beef, wild game, seafood, dairy",2013/10/25 00:00:00+00,No
-9308331.46766178,5256583.05492634,9,244,Colasanti's Market,468 S Milford Rd,Highland,48357,Retail,248-887-0012,http://www.colasantis.com,No,No,No,No,No,No,No,Yes,No,No,No,No,No,No,Promotoes local products,2013/10/25 00:00:00+00,No
-9281338.77167292,5282937.48722602,10,245,Ashton Orchards,3925 Seymour Lake Rd,Ortonville,48462,Orchard/Cider Mill,248-627-6671,http://www.facebook.com/pages/Ashton-Orchards/149943108360974,No,No,No,No,No,No,Yes,No,No,No,No,No,No,No,"Orchard, apples, applesauce, bakery products, caramel apples, cider, jams/jellies, peaches, pears, pumpkins, squash",2018/09/19 00:00:00+00,No
-9250035.18500317,5262353.87534127,11,246,Yates Cider Mill,1990 E Avon Rd,Rochester Hills,48307,Orchard/Cider Mill,248-651-8300,http://www.yatescidermill.com,No,No,No,No,No,No,Yes,No,No,No,No,No,No,No,"Apples, cider, bakery, picnic area, pumpkins, ice cream shop",2018/09/19 00:00:00+00,No
-9273503.41037077,5240758.71028993,12,247,Franklin Cider Mill,7450 Franklin Rd,Bloomfield Hills,48301,Orchard/Cider Mill,248-626-8261,http://www.franklincidermill.com,No,No,No,No,No,No,Yes,No,No,No,No,No,No,No,"Orchard, donuts, cider mill uses only Michigan apples",2018/09/19 00:00:00+00,No
-9290437.3528821,5236015.62775479,13,249,MSU Tollgate Farm,28115 Meadowbrook Rd,Novi,48375,CSA,248-347-3860,http://www.tollgate.msu.edu/sustainable-ag/,No,Yes,No,No,No,No,No,No,No,No,No,No,No,No,"wait list for next season, apply early",2017/06/27 00:00:00+00,No
-9257941.21787872,5271895.29158972,14,250,Goodison Cider Mill,4295 Orion Rd,Rochester,48306,Orchard/Cider Mill,248-652-8450,http://www.goodisoncidermill.wordpress.com,No,No,No,No,No,No,Yes,No,No,No,No,No,No,No,"Orchard, cider, donuts, pistachio nut bread",2018/09/19 00:00:00+00,No
-9254508.53151946,5269950.24080972,15,251,Rochester Cider Mill,5125 N Rochester Rd,Rochester,48306,Orchard/Cider Mill,248-651-4224,http://www.rochestercidermill.com,No,No,No,No,No,No,Yes,No,No,No,No,No,No,No,"Cider, donuts, caramel apples, pony rides, petting zoo",2018/09/19 00:00:00+00,No
-9257584.12700732,5271354.75386323,16,252,Paint Creek Cider Mill,4480 Orion Rd,Rochester,48306,Orchard/Cider Mill,248-656-3400,http://www.facebook.com/PaintCreekCiderMill/,No,No,No,No,No,No,Yes,No,No,No,No,No,No,No,"Cider, donuts, apples, pumpkins",2018/09/19 00:00:00+00,No
-9306261.84294732,5269457.66685036,17,253,Diehl’s Orchard & Cider Mill,1479 Ranch Rd,Holly,48442,Orchard/Cider Mill,248-634-8981,http://www.diehlsorchard.com,No,No,No,No,No,No,Yes,No,No,No,No,No,No,No,"Orchard, apples, cider, donuts, caramel apples, apple chips, apple butter, honey, jams/jellies, fudge, pies, pumpkin",2018/09/19 00:00:00+00,No
-9312606.07966722,5236633.48059334,18,254,Erwin Orchards,61475 Silver Lake Rd,South Lyon,48178,U-Pick,248-437-0150,http://www.erwinorchards.com,No,No,No,No,No,No,No,No,Yes,No,No,No,No,No,"U-pick apples (14 varieties), cider, pumpkins, raspberries, sweet cherries, sunflowers.",2015/09/04 00:00:00+00,No
-9267345.35714739,5282961.3349631,19,255,Harvest Time Farm Market,1125 S Lapeer Rd,Oxford,48371,Farmers Market,248-628-7115,http://www.facebook.com/pg/Harvest-Time-Farm-Market-Pet-Stuff-315168938501376/about/?ref=page_internal,No,No,No,Yes,No,No,No,No,No,No,No,No,No,No,<Null>,2020/08/20 00:00:00+00,No
-9260506.8278158,5282401.82486937,20,256,Upland Hills Farm CSA,2365 Indian Lake Rd,Oxford,48370,CSA,248-693-0423,http://www.uplandhillscsa.org/,Yes,Yes,No,No,No,No,No,No,No,No,No,No,No,No,Organic produce,2015/09/04 00:00:00+00,No
-9280476.93794814,5278110.72198532,21,257,Hodgson Tree Farm,5461 Whipple Lake Rd,Clarkston,48348,Christmas Tree,248-394-0390,http://www.clarkstontreefarm.com,No,No,No,No,No,No,No,No,No,Yes,No,No,No,No,Holiday trees,2015/11/01 00:00:00+00,No
-9279455.55314165,5242509.31996013,22,258,Plum Market,6565 Orchard Lake Rd ,West Bloomfield,48322,Retail,248-626-7000,http://www.plummarket.com,No,No,No,No,No,No,No,Yes,No,No,No,No,No,No,Full service grocery with emphasis on organic and natural foods,2013/10/25 00:00:00+00,No
-9298216.55202588,5265372.16351001,23,262,Ruggles Farm Market,6401 White Lake Rd,White Lake,48383,Nursery/Greenhouse,810-869-7611,http://rugglesmarket.com/index.php/about-us,No,No,No,No,No,No,No,No,No,No,No,No,No,No,Local plants and produce daily May thru October,2020/08/20 00:00:00+00,Yes
-9266183.40900629,5279104.92713669,24,264,Lucky's Natural Foods,101 S Broadway,Lake Orion,48362,Retail,248-693-1209,http://www.luckysnaturalfoods.com,Yes,No,No,No,No,No,No,Yes,No,No,No,No,No,No,"Full line natural organic grocery. Amish, free-range, hormone-free and antibiotic meats, poultry & turkey, raw honey, raw cheese, organic dairy products",2013/10/25 00:00:00+00,No
-9279323.13570589,5230073.08888674,25,266,The Treehouse for Earth's Children,22906 Mooney St,Farmington,48336,Retail,248-473-0624,http://www.treehouseforearthschildren.com,Yes,No,No,No,No,No,No,Yes,No,No,No,No,No,No,Promotes local products,2015/09/04 00:00:00+00,No
-9260828.11773698,5263609.12331644,26,267,Whole Foods Market,2918 Walton Blvd,Rochester Hills,48309,Retail,248-371-1400,http://www.wholefoodsmarket.com,Yes,No,No,No,No,No,No,Yes,No,No,No,No,No,No,Full service grocery with emphasis on organic and natural foods,2013/10/25 00:00:00+00,No
-9261133.023513,5243258.9869832,27,268,Whole Foods Market,2100 E Maple Rd,Birmingham,48009,Retail,248-649-9600,http://www.wholefoodsmarket.com,Yes,No,No,No,No,No,No,Yes,No,No,No,No,No,No,Full service grocery with emphasis on organic and natural foods,2018/08/01 00:00:00+00,No
-9279751.43614377,5240972.53491646,28,269,Whole Foods Market,7350 Orchard Lake Rd,West Bloomfield,48322,Retail,248-538-4600,http://www.wholefoodsmarket.com,Yes,No,No,No,No,No,No,Yes,No,No,No,No,No,No,Full service grocery with emphasis on organic and natural foods,2013/10/25 00:00:00+00,No
-9279426.82245486,5291772.56099057,29,270,Middleton Berry Farm,4790 Oakwood Rd,Ortonville,48462,U-Pick,248-831-1004,http://www.middletonberryfarm.com,No,No,No,No,No,No,No,No,Yes,No,No,No,No,No,"U-pick pumpkins, raspberries, strawberries, sweet corn, tomatoes, etc.",2015/09/04 00:00:00+00,No
-9255079.00883924,5286522.10510912,30,271,Beckwith's Berries and Blooms,2230 Rochester Rd,Leonard,48367,U-Pick,248-628-7123,http://www.facebook.com/pages/Beckwith-Berries-Blooms/933360030087281,Yes,No,No,No,No,No,No,No,Yes,No,No,No,No,No,"U-pick raspberries, produce, eggs, blueberry and raspberry freezer jam, 300 varieties of Day Lilies",2013/10/25 00:00:00+00,No
-9294873.97088008,5251024.78429735,31,272,"Long Family Orchard, Farm and Cider Mill",1540 E Commerce Rd,Commerce,48382,Orchard/Cider Mill,248-360-3774,http://www.longsorchard.com,No,No,No,No,No,No,Yes,No,No,No,No,No,No,No,"Orchard, u-pick apples, cider, asparagus, pumpkins, strawberries, sweet corn",2018/09/19 00:00:00+00,No
-9310423.75202263,5243822.87548687,32,273,Kensington Metropark Farm Center,2240 W Buno Rd,Milford,48380,U-Pick,248-684-8632,http://www.metroparks.com/facilities-education/kensington-farm-center/,No,No,No,No,No,No,No,No,Yes,No,No,No,No,No,"U-pick pumpkins and gourds.  Also have eggs, maple syrup, petting zoo",2013/10/25 00:00:00+00,No
-9255472.35295369,5233025.2515807,33,274,Holiday Market,1203 S Main St,Royal Oak,48067,Retail,248-541-1414,http://www.holiday-market.com,No,No,No,No,No,No,No,Yes,No,No,No,No,No,No,Promotes local products,2013/10/25 00:00:00+00,No
-9254164.96032653,5254410.47587209,34,275,Nino Salvaggio Marketplace,6835 Rochester Rd,Troy,48085,Retail,248-879-9222,http://www.ninosalvaggio.com,Yes,No,No,No,No,No,No,Yes,No,No,No,No,No,No,Promotes local products,2013/10/25 00:00:00+00,No
-9287306.64257374,5260593.18472949,35,276,VC Fresh Marketplace,7300 Highland Rd,Waterford,48327,Retail,248-886-0800,http://www.valuecentermarket.com/home,Unknown,No,No,No,No,No,No,Yes,No,No,No,No,No,No,Promotes local products,2015/09/04 00:00:00+00,No
-9253451.59969927,5241083.06593649,36,278,VC Fresh Marketplace,1485 W 14 Mile Rd,Madison Heights,48071,Retail,248-585-0005,http://www.valuecentermarket.com/home,Unknown,No,No,No,No,No,No,Yes,No,No,No,No,No,No,Promotes local products,2015/09/04 00:00:00+00,No
-9283753.99714921,5231780.1923415,37,279,Busch's,24445 Drake Rd,Farmington Hills,48335,Retail,248-427-7400,http://www.buschs.com,No,No,No,No,No,No,No,Yes,No,No,No,No,No,No,Promotoes local products,2013/10/25 00:00:00+00,No
-9281693.37856585,5240471.71438233,38,280,Busch's,33300 W 14 Mile Rd,West Bloomfield,48322,Retail,248-539-4581,http://www.buschs.com,No,No,No,No,No,No,No,Yes,No,No,No,No,No,No,Promotoes local products,2013/10/25 00:00:00+00,No
-9290450.83312568,5231283.05564878,39,281,Busch's,41840 W 10 Mile Rd,Novi,48375,Retail,248-348-0708,http://www.buschs.com,No,No,No,No,No,No,No,Yes,No,No,No,No,No,No,Promotoes local products,2013/10/25 00:00:00+00,No
-9312029.69485758,5227935.1783023,40,282,Busch's,22385 Pontiac Trl,South Lyon,48178,Retail,248-446-8812,http://www.buschs.com,No,No,No,No,No,No,No,Yes,No,No,No,No,No,No,Promotoes local products,2013/10/25 00:00:00+00,No
-9261397.23715213,5263553.40481192,41,283,Busch's,3188 Walton Blvd,Rochester Hills,48309,Retail,248-375-0900,http://www.buschs.com,No,No,No,No,No,No,No,Yes,No,No,No,No,No,No,Promotoes local products,2013/10/25 00:00:00+00,No
-9306250.78061574,5249722.84827701,42,285,Milford Farmers Market,115 E Liberty St,Milford,48381,Farmers Market,248-863-6371,http://www.milfordfarmersmarket.org,No,No,No,Yes,No,No,No,No,No,No,No,No,No,No,<Null>,2019/07/10 00:00:00+00,No
-9284832.08772917,5242016.1325404,43,290,Henry Ford Hospital Farmers Market,6777 W Maple Rd,West Bloomfield,48322,Farmers Market,248-325-1000,http://www.henryford.com/locations/west-bloomfield/about/campus/main-street/henrys-market,No,No,No,Yes,No,No,No,No,No,No,No,No,No,No,,2019/07/11 00:00:00+00,No
-9268790.71270763,5242931.08133704,44,291,Plum Market,3675 W Maple Rd ,Bloomfield Hills,48301,Retail,248-594-2555,http://www.plummarket.com,No,No,No,No,No,No,No,Yes,No,No,No,No,No,No,Full service grocery with emphasis on organic and natural foods,2013/10/25 00:00:00+00,No
-9277338.23238534,5240438.96514589,45,292,Johnny Pomodoro's,32906 Middlebelt Rd,Farmington Hills,48334,Retail,248-855-0007,http://www.johnnypomodoros.com,No,No,No,No,No,No,No,Yes,No,No,No,No,No,No,Promotes local products,2013/10/25 00:00:00+00,No
-9255171.17646363,5230162.97440534,46,293,Western Market,447 W 9 Mile Rd,Ferndale,48220,Retail,248-546-7288,http://www.westernmkt.com,No,No,No,No,No,No,No,Yes,No,No,No,No,No,No,Promotes local products,2013/10/25 00:00:00+00,No
-9257719.16084276,5235206.66305129,47,294,Westborn Market,27659 Woodward Ave,Berkley,48072,Retail,"248-547-1000
",http://www.westbornmarket.com,No,No,No,No,No,No,No,Yes,No,No,No,No,No,No,Promotes local products,2013/10/25 00:00:00+00,No
-9285437.67213469,5271535.41266155,48,295,Clarkston Area Farmers Market,6558 Waldon Rd,Clarkston,48346,Farmers Market,248-505-6848,http://www.clarkstonareafarmersmarket.com/,No,No,No,Yes,No,No,No,No,No,No,No,No,No,No,,2018/08/01 00:00:00+00,No
-9312083.78055745,5230120.69775088,49,297,South Lyon Farmers Market,110 W Liberty St,South Lyon,48178,Farmers Market,734-707-1358,http://sites.google.com/southlyonfarmersmarket.org/website/home,No,No,No,Yes,No,No,No,No,No,No,No,No,No,No,,2017/06/27 00:00:00+00,No
-9256583.05603012,5242439.94319621,50,298,Clawson Farmers Market,1080 N Custer Ave,Clawson,48017,Farmers Market,248-435-6500,http://www.cityofclawson.com/your_community/community_events/your_community/clawson_farmer_s_market.php,No,No,No,Yes,No,No,No,No,No,No,No,No,No,No,,2016/02/26 00:00:00+00,No
-9264127.31692932,5234886.02582023,51,299,Lathrup Village Farmers Market,27400 Southfield Rd,Lathrup Village,48076,Farmers Market,248-557-2600,http://www.lathrupvillage.org/departments/farmers_market.php,No,No,No,Yes,No,No,No,No,No,No,No,No,No,No,,2019/07/10 00:00:00+00,No
-9310123.44847983,5289082.44646832,52,304,Mitchell Farm,3404 Mitchell Rd,Holly,48442,U-Pick,248-634-4753,http://www.mitchellfarm.biz,No,No,No,No,No,No,No,No,Yes,No,No,No,No,No,"U-pick pumpkins.  Also have apples, corn, gourds, corn stalks, straw, mums",2013/10/25 00:00:00+00,No
-9313454.81158389,5262578.51945918,53,309,Broadview Christmas Tree Farm,4380 N Hickory Ridge Rd,Highland,48357,Christmas Tree,248-887-4865,http://www.broadviewtreefarm.com,No,No,No,No,No,No,No,No,No,Yes,No,No,No,No,Holiday trees,2019/11/14 00:00:00+00,No
-9314889.48934302,5261058.58217141,54,310,Middle Road Christmas Tree Farm,4235 Middle Rd,Highland,48357,Christmas Tree,248-887-1494,http://www.middleroadtreefarm.com,No,No,No,No,No,No,No,No,No,Yes,No,No,No,No,Holiday trees,2013/10/25 00:00:00+00,No
-9311363.52655429,5267349.4873863,55,311,Stanczyk Tree Farm,7355 Fish Lake Rd,Holly,48442,Christmas Tree,248-634-8102,http://www.facebook.com/pages/Stanczyk-Tree-Farm/453346558056700,No,No,No,No,No,No,No,No,No,Yes,No,No,No,No,Holiday trees,2019/11/14 00:00:00+00,No
-9288783.03452659,5277936.5570406,56,312,Rattalee Lake Tree Farm,7650 Rattalee Lake Rd,Clarkston,48348,Christmas Tree,248-620-2973,http://www.rattaleelaketreefarm.com,No,No,No,No,No,No,No,No,No,Yes,No,No,No,No,Holiday trees,2013/10/25 00:00:00+00,No
-9279220.35603034,5282730.42434822,57,313,Candy Cane Christmas Tree Farm,4780 Seymour Lake Rd,Oxford,48371,Christmas Tree,248-628-8899,http://www.candycanetreefarm.com/,No,No,No,No,No,No,No,No,No,Yes,No,No,No,No,Holiday trees,2018/08/01 00:00:00+00,No
-9259467.1966136,5280668.19807837,58,314,Addison-Oaks Christmas Tree Farm,355 Lake George Rd,Oakland,48363,Christmas Tree,248-814-0583,http://www.addisonoakstrees.com,No,No,No,No,No,No,No,No,No,Yes,No,No,No,No,Holiday trees,2013/10/25 00:00:00+00,No
-9254388.75336766,5230409.14575862,59,316,Valentine Distilling Co,161 Vester Ave,Ferndale,48220,Brewery/Winery/Distillery,248-629-9951,http://www.valentinedistilling.com,No,No,No,No,No,No,No,No,No,No,No,No,Yes,No,"Vodka, Gin, Bourbon Whiskey",2015/11/01 00:00:00+00,No
-9252174.2236867,5229681.94458443,60,317,B.Nektar Meadery,1511 Jarvis St,Ferndale,48220,Brewery/Winery/Distillery,313-744-6323,http://www.bnektar.com,No,No,No,No,No,No,No,No,No,No,No,No,Yes,No,"Mead (aka Honey Wine), Cider, Beer",2015/09/04 00:00:00+00,No
-9255364.58077795,5234280.75873754,61,318,Royal Oak Brewery,215 E 4th St,Royal Oak,48067,Brewery/Winery/Distillery,248-544-1141,http://www.royaloakbrewery.com/home,No,No,No,No,No,No,No,No,No,No,No,No,Yes,No,Beer ,2017/06/27 00:00:00+00,No
-9255862.17658813,5234181.1557443,62,319,Lily's Seafood Grill & Brewery,410 S Washington Ave,Royal Oak,48067,Brewery/Winery/Distillery,248-591-5459,http://www.lilysseafood.com,No,No,No,No,No,No,No,No,No,No,No,No,Yes,No,Beer as well as Root Beer,2013/10/25 00:00:00+00,No
-9254370.48489537,5230078.00409303,63,321,Woodward Avenue Brewers,22646 Woodward Ave,Ferndale,48220,Brewery/Winery/Distillery,248-546-3696,http://www.thewabferndale.com,No,No,No,No,No,No,No,No,No,No,No,No,Yes,No,Beer,2015/09/04 00:00:00+00,No
-9288807.44260866,5247814.31815862,64,324,CJ's Brewing Company,8115 Richardson Rd,Commerce,48390,Brewery/Winery/Distillery,248-366-7979,http://www.cjsbrewery.com,No,No,No,No,No,No,No,No,No,No,No,No,Yes,No,Beer,2013/10/25 00:00:00+00,No
-9254146.95331072,5263467.1821021,65,325,Rochester Mills Beer Company - The Pub,400 Water St,Rochester,48307,Brewery/Winery/Distillery,248-650-5080,http://www.beercos.com,No,No,No,No,No,No,No,No,No,No,No,No,Yes,No,Beer,2015/09/04 00:00:00+00,No
-9261252.53940263,5242663.32082762,66,326,Griffin Claw Brewing Company,575 S Eton St,Birmingham,48009,Brewery/Winery/Distillery,248-712-4050,http://www.griffinclawbrewingcompany.com,No,No,No,No,No,No,No,No,No,No,No,No,Yes,No,Beer,2013/10/25 00:00:00+00,No
-9257455.08986737,5245475.93610055,67,327,Granite City Food & Brewery,699 W Big Beaver Rd,Troy,48084,Brewery/Winery/Distillery,248-519-1040,http://www.gcfb.com,No,No,No,No,No,No,No,No,No,No,No,No,Yes,No,Beer,2013/10/25 00:00:00+00,No
-9311943.22341511,5229322.47432885,68,328,Witch's Hat Brewing Company,601 S Lafayette St,South Lyon,48178,Brewery/Winery/Distillery,248-486-2595,http://www.witchshatbrewing.com,No,No,No,No,No,No,No,No,No,No,No,No,Yes,No,Beer,2015/09/04 00:00:00+00,No
-9254445.96739137,5263223.36799526,69,329,Fieldstone Winery,223 S Main St,Rochester,48307,Brewery/Winery/Distillery,248-656-0618,http://www.fieldstonewine.com,No,No,No,No,No,No,No,No,No,No,No,No,Yes,No,Wine and hard cider,2013/10/25 00:00:00+00,No
-9292407.80217693,5226761.04591973,70,330,Northville Winery,630 E Baseline Rd,Northville,48167,Brewery/Winery/Distillery,248-320-6507,http://www.thenorthvillewinery.com,No,No,No,No,No,No,No,No,No,No,No,No,Yes,No,Wine and hard cider,2015/09/04 00:00:00+00,No
-9254179.91323845,5259471.33347561,71,631,Bordines,1835 S Rochester Rd,Rochester Hills,48307,Nursery/Greenhouse,248-651-9000,http://www.bordines.com/,No,No,No,No,No,No,No,No,No,No,No,No,No,No,,2016/02/26 00:00:00+00,Yes
-9290575.19830552,5273028.2648523,72,632,Bordines,8600 Dixie Hwy,Clarkston,48348,Nursery/Greenhouse,248-625-9100,http://www.bordines.com/,No,No,No,No,No,No,No,No,No,No,No,No,No,No,,2016/02/26 00:00:00+00,Yes
-9284332.11316093,5291618.67555359,73,633,Wojo's,2570 Oakwood Rd,Ortonville,48462,Nursery/Greenhouse,248-627-6498,http://www.wojos.com/,No,No,No,No,No,No,No,No,No,No,No,No,No,No,,2016/02/26 00:00:00+00,Yes
-9274047.56901205,5255586.50715907,74,634,Goldner Walsh Garden & Home,559 Orchard Lake Rd,Pontiac,48341,Nursery/Greenhouse,248-332-6430,http://www.goldnerwalsh.com/,No,No,No,No,No,No,No,No,No,No,No,No,No,No,,2016/06/27 00:00:00+00,Yes
-9297068.53059963,5255457.89510624,75,635,Bogie Lake Greenhouses,1525 Bogie Lake Rd,White Lake,48383,Nursery/Greenhouse,248-887-5101,http://www.bogielakegreenhouses.com/,No,No,No,No,No,No,No,No,No,No,No,No,No,No,,2016/02/26 00:00:00+00,Yes
-9312866.98253215,5261942.32835626,76,637,Highland Tree Farm & Garden Center,3680 N Hickory Rdige Rd,Highland,48357,Nursery/Greenhouse,248-887-6977,http://www.highlandtreefarm.com/,No,No,No,No,No,No,No,No,No,No,No,No,No,No,,2016/02/26 00:00:00+00,Yes
-9259957.10635698,5241472.63243329,77,638,English Gardens,4901 Coolidge Hwy,Royal Oak,48073,Nursery/Greenhouse,248-280-9500,http://www.englishgardens.com/locations/royal-oak-mi,No,No,No,No,No,No,No,No,No,No,No,No,No,No,,2016/02/26 00:00:00+00,Yes
-9279787.58876302,5242902.931501,78,639,English Gardens,6370 Orchard Lake Rd,West Bloomfield,48322,Nursery/Greenhouse,248-851-7506,http://www.englishgardens.com/locations/west-bloomfield-mi,No,No,No,No,No,No,No,No,No,No,No,No,No,No,,2016/02/26 00:00:00+00,Yes
-9262557.45173376,5256485.3135461,79,640,Auburn Oaks Nursery,3820 W Auburn Rd,Rochester Hills,48309,Nursery/Greenhouse,248-852-2310,http://www.auburnoaksnursery.com/,No,No,No,No,No,No,No,No,No,No,No,No,No,No,,2016/02/26 00:00:00+00,Yes
-9261305.46479853,5270192.27940909,80,641,Sherwood Forest Garden Center,4981 N Adams Rd,Rochester,48306,Nursery/Greenhouse,248-652-4920,http://www.sherwoodforestgardencenter.com/,No,No,No,No,No,No,No,No,No,No,No,No,No,No,,2016/02/26 00:00:00+00,Yes
-9288026.29612231,5234732.08148398,81,642,Farmer John's Greenhouse,26950 Haggerty Rd,Farmington Hills,48331,Nursery/Greenhouse,248-553-7141,http://www.farmerjohnsgreenhouse.com/,No,No,No,No,No,No,No,No,No,No,No,No,No,No,,2016/02/26 00:00:00+00,Yes
-9251662.16522206,5246580.20682109,82,643,Telly's Greeenhouse,3301 John R Rd,Troy,48083,Nursery/Greenhouse,248-689-8735,http://www.tellys.com/,No,No,No,No,No,No,No,No,No,No,No,No,No,No,,2016/02/26 00:00:00+00,Yes
-9289222.99103033,5257822.14293289,83,645,Mulligan's Landscape & Garden Center,8215 Elizabeth Lake Rd,White Lake,48386,Nursery/Greenhouse,248-698-4741,http://www.mulliganlandscaping.com/home.html,No,No,No,No,No,No,No,No,No,No,No,No,No,No,,2016/02/26 00:00:00+00,Yes
-9260834.48924538,5234428.16242959,84,646,Four Seasons Garden Center,14471 W 11 Mile Rd,Oak Park,48237,Nursery/Greenhouse,248-543-4400,http://fourseasonsgardencenter.com/,No,No,No,No,No,No,No,No,No,No,No,No,No,No,,2019/07/12 00:00:00+00,Yes
-9289400.5515986,5232291.60757972,85,647,Glenda's Garden Center,40575 Grand River Ave,Novi,48375,Nursery/Greenhouse,248-471-4794,http://www.glendasgardencenter.com/,No,No,No,No,No,No,No,No,No,No,No,No,No,No,,2016/02/26 00:00:00+00,Yes
-9260210.59417102,5236693.50560407,86,648,Garden Central,2682 12 Mile Rd,Berkley,48072,Nursery/Greenhouse,248-542-6640,http://www.gardencentralinc.com/home.html,No,No,No,No,No,No,No,No,No,No,No,No,No,No,,2016/02/26 00:00:00+00,Yes
-9281356.07685823,5227539.96167855,87,649,Steinkopf Nursery,20815 Farmington Rd,Farmington Hills,48336,Nursery/Greenhouse,248-474-2925,http://steinkopfnursery.com/,No,No,No,No,No,No,No,No,No,No,No,No,No,No,,2017/06/27 00:00:00+00,Yes
-9254757.62900686,5278738.50489067,88,650,Piechnik's Garden Gate,1095 N Rochester Rd,Oakland ,48363,Nursery/Greenhouse,586-336-7200,http://www.piechniks.com/about-us/,No,No,No,No,No,No,No,No,No,No,No,No,No,No,,2016/02/26 00:00:00+00,Yes
-9308339.94623745,5258032.23479049,89,651,Thornton Nursery,701 N Milford Rd,Highland,48357,Nursery/Greenhouse,248-887-2217,http://www.thorntonnursery.com/main.php,No,No,No,No,No,No,No,No,No,No,No,No,No,No,,2016/02/26 00:00:00+00,Yes
-9308083.74241795,5246450.77797151,90,652,Milford Gardens,1666 S Milford Rd,Milford,48381,Nursery/Greenhouse,248-685-0009,http://www.milfordgardens.net/home.aspx,No,No,No,No,No,No,No,No,No,No,No,No,No,No,,2016/02/26 00:00:00+00,Yes
-9306708.33713755,5263851.25748651,91,654,Bonadeo Farms,1215 White Lake Rd,Highland,48356,Orchard/Cider Mill,248-787-4553,http://www.bonadeofarms.com/,No,No,No,No,No,No,Yes,No,No,No,No,No,No,No,"Orchard, cider, donuts, pies, pumpkins, corn maze",2016/02/26 00:00:00+00,No
-9308817.11257678,5280062.25865057,92,656,Holly Farmers Market,0 Martha Street,Holly,48442,Farmers Market,<Null>,http://www.facebook.com/HollyFarmers/,No,No,No,Yes,No,No,No,No,No,No,No,No,No,No,no phone listed,2019/07/10 00:00:00+00,No
-9273658.44052183,5239972.06542305,93,657,Market on the Green,32325 Franklin Rd,Franklin,48025,Farmers Market,248-672-4565,http://www.facebook.com/pg/MarketOnTheGreen.Franklin/about/,No,No,No,Yes,No,No,No,No,No,No,No,No,No,No,,2020/08/20 00:00:00+00,No
-9252016.63501242,5231608.85153633,94,658,Hazel Park Growers and Makers Market,620 W Woodward Heights Blvd,Hazel Park,48030,Farmers Market,248-506-0949,http://www.facebook.com/hazelparkgrowersandmakersmarket/,No,No,No,Yes,No,No,No,No,No,No,No,No,No,No,<Null>,2020/08/20 00:00:00+00,No
-9260984.71083068,5238471.50351792,95,659,Beaumont Royal Oak Farmers Market,3601 W 13 Mile Rd,Royal Oak,48073,Farmers Market,248-898-3031,http://www.beaumont.org/community/farmers-market,No,No,No,Yes,No,No,No,No,No,No,No,No,No,No,Entrance of South Tower,2019/07/11 00:00:00+00,No
-9292077.08694052,5242164.41027883,96,660,Walled Lake Farmers Market,1499 E West Maple Rd,Walled Lake ,48390,Farmers Market,248-624-4847,http://www.facebook.com/WalledLakeFarmersMarket/,No,No,No,Yes,No,No,No,No,No,No,No,No,No,No,,2020/08/20 00:00:00+00,No
-9292224.06265747,5227791.24994634,97,661,Guernsey Farms Dairy,21300 Novi Rd,Northville,48167,Dairy,248-349-1466,http://www.guernseyfarmsdairy.com/,No,No,Yes,No,No,No,No,No,No,No,No,No,No,No,"Dairy products, ice cream, toppings, lemonade",2016/06/27 00:00:00+00,No
-9310503.88954806,5243822.17784336,98,662,Kensington Metropark Farm Center,2240 W Buno Rd,Milford,48380,Farmers Market,248-684-8632,http://www.metroparks.com/facilities-education/kensington-farm-center/,No,No,No,Yes,No,No,No,No,No,No,No,No,No,No,<Null>,2020/08/20 00:00:00+00,No
-9277881.73678951,5289840.65368885,99,665,Dream Catchers Alpacas,5497 Hummer Lake Rd,Oxford,48371,Alpaca,248-561-7415,http://www.dreamcatcheralpacas.com/,No,No,No,No,No,No,No,No,No,No,No,Yes,No,No,,2016/09/01 00:00:00+00,No
-9302982.63071824,5253347.77099543,100,668,Oasis Acres Alpaca Farm,3131 S Duck Lake Rd,Highland,48356,Alpaca,248-345-9083,http://www.facebook.com/OasisAcresAlpaca,No,No,No,No,No,No,No,No,No,No,No,Yes,No,No,,2016/09/01 00:00:00+00,No
-9301972.44027738,5245413.16247359,101,669,Zodiac Ranch,2791 Wixom Rd,Milford,48381,Alpaca,248-685-0403,http://www.zodiacranch.com/home.html,No,No,No,No,No,No,No,No,No,No,No,Yes,No,No,,2016/09/01 00:00:00+00,No
-9272058.44264142,5256879.16318348,102,672,Fillmore 13 Brewery,7 N Saginaw St,Pontiac,48342,Brewery/Winery/Distillery,248-977-3972,http://www.fillmore13brewery.com/,No,No,No,No,No,No,No,No,No,No,No,No,Yes,No,Beer,2017/06/27 00:00:00+00,No
-9290860.00008505,5232901.94998703,103,673,Ascension Brewing Co,42000 Grand River Ave,Novi,48375,Brewery/Winery/Distillery,248-308-2093,http://www.ascension.beer/,No,No,No,No,No,No,No,No,No,No,No,No,Yes,No,Beer,2016/09/01 00:00:00+00,No
-9306335.60517027,5249243.05514503,104,674,River's Edge Brewing Co,125 S Main St Ste 400,Milford,48381,Brewery/Winery/Distillery,248-685-1625,http://www.riversedgebrew.com/,No,No,No,No,No,No,No,No,No,No,No,No,Yes,No,Beer,2016/09/01 00:00:00+00,No
-9309345.62601902,5281635.04892326,105,675,Northern Oak Brewery,806 N Saginaw St,Holly,48442,Brewery/Winery/Distillery,248-634-7515,http://www.northernoakbrewery.com/,No,No,No,No,No,No,No,No,No,No,No,No,Yes,No,Beer,2016/09/01 00:00:00+00,No
-9284768.55931885,5267946.17714712,106,676,Parker's Hilltop Brewing,6110 Dixie Hwy,Clarkston,48346,Brewery/Winery/Distillery,248-383-8444,http://www.hilltopbrew.com/,No,No,No,No,No,No,No,No,No,No,No,No,Yes,No,Beer,2016/09/01 00:00:00+00,No
-9289229.05024572,5249735.08020714,107,677,Kickstand Brewing Company,3050 Union Lake Rd Ste 4A,Commerce,48382,Brewery/Winery/Distillery,248-301-5941,http://www.kickstandbrewingco.com/,No,No,No,No,No,No,No,No,No,No,No,No,Yes,No,Beer,2016/09/01 00:00:00+00,No
-9281382.32286049,5230884.44704052,108,678,Farmington Brewing Company,33336 Grand River Ave,Farmington,48336,Brewery/Winery/Distillery,248-957-9543,http://www.fbcbrewing.com/,No,No,No,No,No,No,No,No,No,No,No,No,Yes,No,Beer,2016/09/01 00:00:00+00,No
-9312063.59451288,5229971.24550992,109,679,Third Monk Brewing Company,228 S Lafayette St,South Lyon,48178,Brewery/Winery/Distillery,248-278-6366,http://www.thirdmonkbrewingco.com/,No,No,No,No,No,No,No,No,No,No,No,No,Yes,No,Beer,2016/09/01 00:00:00+00,No
-9255150.00378634,5233612.34129241,110,681,Roak Brewing Co,330 E Lincoln Ave,Royal Oak,48067,Brewery/Winery/Distillery,248-268-8780,http://www.roakbrewing.com/,No,No,No,No,No,No,No,No,No,No,No,No,Yes,No,Beer,2016/09/01 00:00:00+00,No
-9308912.25063524,5238119.6186027,111,682,Draught Horse Brewery,57721 Grand River Ave,New Hudson,48165,Brewery/Winery/Distillery,248-617-3000,http://www.draughthorsebrewery.com/,No,No,No,No,No,No,No,No,No,No,No,No,Yes,No,Beer,2016/09/01 00:00:00+00,No
-9299655.28980985,5239772.60409037,112,683,Drafting Table Brewing Company,49438 Pontiac Trl,Wixom,48393,Brewery/Winery/Distillery,248-956-7279,http://draftingtablebeer.com/home/home/,No,No,No,No,No,No,No,No,No,No,No,No,Yes,No,Beer,2020/08/20 00:00:00+00,No
-9269063.46057533,5285459.0546277,113,684,HomeGrown Brewing Co,28 N Washington St,Oxford,48371,Brewery/Winery/Distillery,248-800-4244,http://www.homegrownbrewco.com/,No,No,No,No,No,No,No,No,No,No,No,No,Yes,No,Beer,2017/06/27 00:00:00+00,No
-9283500.95111705,5282811.3466556,114,1065,Cook's Dairy Farm,2950 Seymour Lake Rd,Ortonville,48462,Dairy,248-627-3329,http://www.cooksfarmdairy.com,No,No,Yes,No,No,No,No,No,No,No,No,No,No,No,"Dairy products, ice cream, local cheeses, eggs, honey, jams & jellies",2013/10/25 00:00:00+00,No
-9293479.94065554,5279010.8815378,115,1066,Jordan's Pure & Natural Raw Michigan Honey,10011 Gibbs Rd,Clarkston,48348,Honey,248-620-3738,http://www.facebook.com/Jordans-Pure-Natural-Raw-Michigan-Honey-836742276462400/,Unknown,No,No,No,Yes,No,No,No,No,No,No,No,No,No,Honey,2016/09/01 00:00:00+00,No
-9275066.1543912,5288855.87440568,116,1465,Eclipse Alpacas,1575 N Coats Rd,Oxford,48371,Alpaca,248-894-8515,http://www.eclipsealpacas.com/#we-love-alpacas,No,No,No,No,No,No,No,No,No,No,No,Yes,No,No,,2016/09/01 00:00:00+00,No
-9312593.43532959,5236633.37354652,117,1466,Erwin Orchards,61475 Silver Lake Rd,South Lyon,48178,Orchard/Cider Mill,248-437-0150,http://www.erwinorchards.com,No,No,No,No,No,No,Yes,No,No,No,No,No,No,No,"Orchard, cider, donuts, pies, honey, u-pick pumpkins",2018/09/19 00:00:00+00,No
-9294886.35404142,5251023.53312362,118,1467,"Long Family Orchard, Farm and Cider Mill",1540 E Commerce Rd,Commerce,48382,U-Pick,248-360-3774,http://www.longsorchard.com,No,No,No,No,No,No,No,No,Yes,No,No,No,No,No,"U-pick apples, pumpkins, sweet corn",2016/09/01 00:00:00+00,No
-9292293.92527922,5226766.48143019,119,1468,Parmenter's Northville Cider Mill,714 E Baseline Rd,Northville,48167,Orchard/Cider Mill,248-349-3181,http://www.northvillecider.com/,No,No,No,No,No,No,Yes,No,No,No,No,No,No,No,"Orchard, cider, donuts, pies, pumpkins",2018/09/19 00:00:00+00,No
-9266084.18442557,5277883.11976491,120,1469,Fogler’s Greenhouse & Farm Market,559 S Lapeer Rd,Lake Orion,48362,Nursery/Greenhouse,248-690-7458,http://www.foglersgreenhouse.com,No,No,No,No,No,No,No,No,No,No,No,No,No,No,<Null>,2020/08/20 00:00:00+00,Yes
-9302673.04679655,5250531.71601351,121,1866,Shangri-La Ranch,2640 E Commerce St,Milford,48381,Alpaca,248-345-7576,http://www.facebook.com/ShangriLaRanchalpacas/,No,No,No,No,No,No,No,No,No,No,No,Yes,No,No,,2018/08/01 00:00:00+00,No
-9266841.36884399,5264806.72069584,122,1870,Rochester Mills Production Brewery & Taproom,3275 Lapeer Rd W,Auburn Hills,48326,Brewery/Winery/Distillery,248-377-3130,http://www.themillsbrewing.com/home,No,No,No,No,No,No,No,No,No,No,No,No,Yes,No,Beer,2020/08/20 00:00:00+00,No
-9272056.53535263,5256874.92077776,123,1872,Exferimentation Brewing Co,7 N Saginaw St,Pontiac,48342,Brewery/Winery/Distillery,248-919-7869,http://exferimentationbrewing.com/,No,No,No,No,No,No,No,No,No,No,No,No,Yes,No,Beer,2020/08/20 00:00:00+00,No
-9255190.6585103,5234295.77396802,124,1873,Motor City Gas,325 E 4th St,Royal Oak,48067,Brewery/Winery/Distillery,248-599-1427,http://www.motorcitygas.com/,No,No,No,No,No,No,No,No,No,No,No,No,Yes,No,Whiskey,2018/08/01 00:00:00+00,No
-9255146.91950179,5234238.37682873,125,1874,River Rouge Brewing Company,406 E 4th St,Royal Oak,48067,Brewery/Winery/Distillery,248-802-0555,http://www.riverrougebrew.com/,No,No,No,No,No,No,No,No,No,No,No,No,Yes,No,Beer,2017/01/24 00:00:00+00,No
-9303808.26931614,5266008.78710921,126,1877,Hoffman Farms Winery,2521 Rose Center Rd,Highland,48356,Brewery/Winery/Distillery,248-714-5953,http://www.facebook.com/HoffmanFarmsWinery/,No,No,No,No,No,No,No,No,No,No,No,No,Yes,No,Wine,2020/08/20 00:00:00+00,No
-9255539.95050862,5234158.00470738,127,1879,Jolly Pumpkin Artisan Ales,419 S Main St,Royal Oak,48067,Brewery/Winery/Distillery,248-544-6250,http://www.jollypumpkin.com/jp/royal-oak-brewery,No,No,No,No,No,No,No,No,No,No,No,No,Yes,No,Beer,2018/08/01 00:00:00+00,No
-9289066.14039934,5289338.13087966,128,1880,For the Love of Local,68 South St,Ortonville,48462,Retail,248-627-3671,http://www.fortheloveoflocal.co/,No,No,No,No,No,No,No,Yes,No,No,No,No,No,No,Promotes local products,2017/06/27 00:00:00+00,No
-9253686.27232013,5231311.24021898,129,1882,Urbanrest Brewing Co,2615 Wolcott St,Ferndale,48220,Brewery/Winery/Distillery,586-945-5121,http://www.urbanrest.com/,No,No,No,No,No,No,No,No,No,No,No,No,Yes,No,Beer,2019/07/11 00:00:00+00,No
-9287215.23340354,5260581.79047137,130,1883,Rustic Leaf Brewing Co,7200 Highland Rd,Waterford,48327,Brewery/Winery/Distillery,248-599-9933,http://rusticleafbrewingcompany.com/,No,No,No,No,No,No,No,No,No,No,No,No,Yes,No,Beer,2017/09/06 00:00:00+00,No
-9318023.07176556,5280900.35026485,131,1885,Fenton Farmers Market,150 S Leroy St,Fenton,48430,Farmers Market,810-714-2011,http://slpr.net/,Unknown,No,No,Yes,No,No,No,No,No,No,No,No,No,No,<Null>,2017/11/01 00:00:00+00,No
-9293309.0136619,5225079.87224071,132,1886,Northville Farmers Market,195 W Main St,Northville,48167,Farmers Market,248-349-7640,http://www.northville.org/index.php/events2/farmers-market,Unknown,No,No,Yes,No,No,No,No,No,No,No,No,No,No,<Null>,2019/07/11 00:00:00+00,No
-9303683.03650446,5271285.18160826,133,2285,KeiLin Farm,9160 Eagle Rd,Davisburg,48350,Meat,248-634-7276,http://www.keilinfarm.com/,Unknown,No,No,No,No,Yes,No,No,No,No,No,No,No,No,Angus Cattle.  Beef can be purchased by the quarter or half.,2018/02/27 00:00:00+00,No
-9310332.41211328,5259135.41757173,134,2286,Huff's Tree Farm,1460 W Wardlow Rd,Highland,48357,Christmas Tree,248-935-4140,http://www.facebook.com/pg/hufftreefarmsince1954/posts/?ref=page_internal,No,No,No,No,No,No,No,No,No,Yes,No,No,No,No,Holiday trees,2020/08/20 00:00:00+00,No
-9290435.79380564,5236086.22101767,135,2287,MSU Tollgate Farm,28115 Meadowbrook Rd,Novi,48375,Farmers Market,248-347-3860,http://www.tollgate.msu.edu/sustainable-ag/,No,No,No,Yes,No,No,No,No,No,No,No,No,No,No,Wednesdays during the season from 4:30-6:30,2018/08/01 00:00:00+00,No
-9256746.31440365,5245955.97923162,136,2288,Troy Farmers Market,510 W Big Beaver Rd,Troy,48084,Farmers Market,248-524-1147,http://troymi.gov/community/troy_farmers_market/index.php,Unknown,No,No,Yes,No,No,No,No,No,No,No,No,No,No,,2018/08/01 00:00:00+00,No
-9260311.5316929,5231080.69936453,137,2289,Oak Park Farmers Market,14000 Oak Park Blvd,Oak Park,48237,Farmers Market,248-691-7555,http://www.oakparkmi.gov/,Unknown,No,No,Yes,No,No,No,No,No,No,No,No,No,No,"Every Wednesday during season, in green way just west of City Hall",2018/08/01 00:00:00+00,No
-9271434.03796656,5242685.66611577,138,2290,Nino Salvaggio Marketplace,6592 Telegraph Rd,Bloomfield Twp,48301,Retail,248-970-7000,http://www.ninosalvaggio.com/,Yes,No,No,No,No,No,No,Yes,No,No,No,No,No,No,Promotes local products,2018/08/01 00:00:00+00,No
-9300446.99528547,5281943.73606644,139,2291,Fabulous Fibers Alpaca Farm,8069 Buckell Lake Rd,Holly,48442,Alpaca,248-634-7296,http://fabfibers.com/about_us,No,No,No,No,No,No,No,No,No,No,No,Yes,No,No,,2018/08/01 00:00:00+00,No
-9307214.49122971,5221747.07666262,140,2301,Three Cedars Farm,7897 6 Mile Rd,Northville,48167,U-Pick,248-437-8200,http://threecedarsfarm.org/,Unknown,No,No,No,No,No,No,No,Yes,No,No,No,No,No,U-pick pumpkins,2020/08/20 00:00:00+00,No
-9286156.34500395,5271850.65588654,141,2698,Essence on Main,4 S Main St,Clarkston,48346,Retail,248-942-4949,http://www.essenceonmain.com/home.html,Yes,No,No,No,No,No,No,Yes,No,No,No,No,No,No,Promotes local products,2019/07/12 00:00:00+00,No
-9251358.54558618,5235466.10930965,142,3097,Cadillac Straits Brewing Company,27651 John R Rd,Madison Heights,48071,Brewery/Winery/Distillery,248-850-7673,"http://cadillacstraits.com/
",No,No,No,No,No,No,No,No,No,No,No,No,Yes,No,Beer,2019/07/15 00:00:00+00,No
-9279570.55959583,5236227.63203187,143,3098,Craft Breww City,27843 Orchard Lake Rd,Farmington Hills,48334,Brewery/Winery/Distillery,248-488-5555,"http://craftbrewwcity.com/
",No,No,No,No,No,No,No,No,No,No,No,No,Yes,No,Beer,2019/07/15 00:00:00+00,No
-9254663.15739523,5230426.02091489,144,3099,Brooks Brewing,22925 Woodward Ave,Ferndale,48220,Brewery/Winery/Distillery,248-307-7772,"http://www.bbrewing.com/
",No,No,No,No,No,No,No,No,No,No,No,No,Yes,No,Beer,2020/08/20 00:00:00+00,No
-9258469.76576134,5258413.99140423,145,3100,Griffin Claw Clubhouse,2265 Crooks Rd,Rochester Hills,48309,Brewery/Winery/Distillery,248-289-6093,http://www.clubhousebfd.com/,No,No,No,No,No,No,No,No,No,No,No,No,Yes,No,Beer,2020/08/20 00:00:00+00,No
-9293284.46301789,5226323.90899937,146,3101,North Center Brewing Company,410 N Center St,Northville,48167,Brewery/Winery/Distillery,248-444-7967,"http://www.northcenterbrewing.com/
",No,No,No,No,No,No,No,No,No,No,No,No,Yes,No,Beer,2019/07/15 00:00:00+00,No
-9255604.34873398,5234301.35706587,147,3102,Ale Mary's Beer Hall,316 S Main St,Royal Oak,48067,Brewery/Winery/Distillery,248-268-1939,"http://www.alemarysbeer.com/
",No,No,No,No,No,No,No,No,No,No,No,No,Yes,No,Beer,2019/07/15 00:00:00+00,No
-9264477.01369013,5238959.27408572,148,3103,Michigan Beer Growler Company,31221 Southfield Rd,Beverly Hills,48025,Brewery/Winery/Distillery,248-385-3773,"http://michiganbeergrowlerco.com/
",No,No,No,No,No,No,No,No,No,No,No,No,Yes,No,Beer,2019/07/15 00:00:00+00,No
-9291797.21972871,5232836.69062026,149,3104,Michigan Beer Company,42875 Grand River Ave,Novi,48375,Brewery/Winery/Distillery,248-349-7000,"http://www.mibeerco.com/
",No,No,No,No,No,No,No,No,No,No,No,No,Yes,No,Beer,2019/07/15 00:00:00+00,No
-9264097.25204828,5256327.69826897,150,3105,Michigan by the Bottle Tasting Room,3384 Auburn Rd,Auburn Hills,48326,Brewery/Winery/Distillery,248-564-2134,"http://mbtbtasting.com/
",No,No,No,No,No,No,No,No,No,No,No,No,Yes,No,Wine,2019/07/15 00:00:00+00,No
-9259367.81857832,5237745.8978621,151,3106,Michigan by the Bottle Tasting Room,29932 Woodward Ave,Royal Oak,48073,Brewery/Winery/Distillery,248-850-7175,"http://mbtbtasting.com/
",No,No,No,No,No,No,No,No,No,No,No,No,Yes,No,Wine,2019/07/15 00:00:00+00,No
-9252110.97058197,5241401.58767924,152,3109,St. Julian's Winery ,518 W 14 Mile Rd,Troy,48083,Brewery/Winery/Distillery,248-951-2113,"http://www.stjulian.com/
",No,No,No,No,No,No,No,No,No,No,No,No,Yes,No,Wine tasting,2019/07/15 00:00:00+00,No
-9292410.88113423,5225145.1183649,153,3110,Vine 2 Wine Custom Winery,446 S Main St,Northville,48167,Brewery/Winery/Distillery,248-465-9463,"http://www.northvillewine.com/
",No,No,No,No,No,No,No,No,No,No,No,No,Yes,No,Wine,2019/07/15 00:00:00+00,No
-9314945.53417677,5284694.52001452,154,3111,Seven Lakes Vineyard & Winery,1111 Tinsman Rd,Fenton,48430,Brewery/Winery/Distillery,810-373-6081,"http://www.sevenlakesvineyard.com/
",No,No,No,No,No,No,No,No,No,No,No,No,Yes,No,Wine,2019/07/15 00:00:00+00,No
-9266169.59947369,5278874.66816281,155,3497,Oak Soda,197 S Broadway St,Lake Orion,48362,Brewery/Winery/Distillery,248-558-2900,http://www.oatsodalakeorion.com/,No,No,No,No,No,No,No,No,No,No,No,No,Yes,No,Beer,2020/02/13 00:00:00+00,No
-9269030.61674798,5285404.2167291,156,3498,Gravel Capital Brewing,14 N Washington St,Oxford,48371,Brewery/Winery/Distillery,248-572-4522,http://gravelcapital.com/,No,No,No,No,No,No,No,No,No,No,No,No,Yes,No,Beer,2020/02/13 00:00:00+00,No
-9260376.12657314,5238725.68501198,157,3499,Brown Iron Brew House,30955 Woodward Ave Ste 510,Royal Oak,48073,Brewery/Winery/Distillery,248-951-2659,http://www.browniron.com/,No,No,No,No,No,No,No,No,No,No,No,No,Yes,No,Beer,2020/03/27 00:00:00+00,No
-9308055.24249177,5259840.03062345,158,3502,Michigan Heirlooms,209 E Wardlow Rd,Highland,48356,Nursery/Greenhouse,248-343-1976,http://www.michiganheirlooms.com/,Yes,No,No,No,No,No,No,No,No,No,No,No,No,No,"Spring nursery for heirloom tomato, pepper, lettuce & herb plants",2020/08/20 00:00:00+00,Yes
-9266567.17942882,5290162.70924054,159,3505,East River Organic Farm,2265 N Oxford Rd,Oxford,48371,CSA,248-613-4001,http://www.eastriverorganic.com/,Yes,Yes,No,No,No,No,No,No,No,No,No,No,No,No,"Eggs, beef, turkey chicken, pork, lamb",2020/08/20 00:00:00+00,No
-9290113.26159108,5283406.01343793,160,3902,Polk-Around Farm,1200 Bald Eagle Lake Rd,Ortonville,48462,U-Pick,810-814-3699,http://www.polkaroundfarm.com/faq.html,No,No,No,No,No,No,No,No,Yes,No,No,No,No,No,U-pick blueberries,2020/08/20 00:00:00+00,No
-9279026.67410433,5282612.66867017,161,3904,Summer Dreams Farm,4780 Seymour Lake Rd,Oxford,48371,Nursery/Greenhouse,248-802-8979,http://summerdreamsfarm.com/,Unknown,No,No,No,No,No,No,No,No,No,No,No,No,No,Online orders for local grown Dalhias and tubers,2020/08/20 00:00:00+00,Yes
-9308095.83614038,5255832.43559062,162,3905,Two Hounds Farm,S Milford Rd,Highland,48357,Nursery/Greenhouse,248-504-1476,http://www.facebook.com/pg/twohoundsfarmmi/about/?ref=page_internal,Unknown,No,No,No,No,No,No,No,No,No,No,No,No,No,Vegetables and flowers,2020/08/20 00:00:00+00,Yes
-9253587.73899183,5231356.10752551,163,3906,Farm Field Table,1030 Woodward Heights Blvd,Ferndale,48220,Meat,248-509-8555,http://www.farmfieldtable.com/,No,No,No,No,No,Yes,No,No,No,No,No,No,No,No,"Local raised meat.  No antibiotics, no hormones.",2020/08/20 00:00:00+00,No
-9267849.1710091,5283978.95526953,164,3907,One Drop Brewing Company,130 Oakdell St,Oxford,48371,Brewery/Winery/Distillery,303-903-5519,http://onedropbrewingcompany.com/,No,No,No,No,No,No,No,No,No,No,No,No,Yes,No,Beer,2020/08/20 00:00:00+00,No
-9297737.47935266,5256071.1994286,165,4300,Sunshine Plants,1240 Bogie Lake Rd,White Lake,48383,Nursery/Greenhouse,248-887-3893,http://www.facebook.com/sunshineplantswhitelake/,Unknown,No,No,No,No,No,No,No,No,No,No,No,No,No,,2020/08/20 00:00:00+00,Yes
-9266084.18442557,5277883.11976491,166,4301,Fogler’s Greenhouse & Farm Market,559 S Lapeer Rd,Lake Orion,48362,Farmers Market,248-690-7458,http://www.foglersgreenhouse.com,No,No,No,Yes,No,No,No,No,No,No,No,No,No,No,<Null>,2020/08/20 00:00:00+00,No
-9285434.78635943,5271523.61076095,167,4702,Michigan Micro Farm,,Clarkston,48348,Nursery/Greenhouse,,http://www.facebook.com/MichiganMicroFarm/?ref=page_internal,Unknown,No,No,No,No,No,No,No,No,No,No,No,No,No,Superior quality microgreens,2020/08/20 00:00:00+00,Yes
-9306884.63150446,5259745.07541655,168,4703,Our Farm,1865 Harvey Lake Rd,Highland,48356,CSA,248-807-0058,http://www.localharvest.org/our-farm-M60237,Yes,Yes,No,No,No,No,No,No,No,No,No,No,No,No,,2020/08/20 00:00:00+00,No
-9298845.21817272,5228745.02107446,169,4704,Michigan Flower Farm,22460 Garfield Rd,Northville,48167,Nursery/Greenhouse,248-390-7266,http://michiganflowerfarm.com/index.html,Unknown,No,No,No,No,No,No,No,No,No,No,No,No,No,,2020/08/20 00:00:00+00,Yes
-9308246.67512952,5257004.89513759,170,5100,Highland Farmers' Market,116 E Livingston Rd,Highland,48357,Farmers Market,313-753-2756,http://www.highlandfarmmarket.com/?fbclid=IwAR21owrafX0q-x6KJpC2ZXGGsWO88Az9hyVzkjo2PGpGMT5JNVMwGTHtX1M,Unknown,No,No,Yes,No,No,No,No,No,No,No,No,No,No,,2020/08/20 00:00:00+00,No
-9311772.93185924,5226499.11910398,171,5101,Greener Pastures Market,21202 Pontiac Trl,South Lyon,48178,Retail,734-757-4209,http://greener-pastures-market.business.site/,Yes,No,No,No,No,No,No,Yes,No,No,No,No,No,No,Full service grocery with emphasis on organic and natural foods,2020/08/20 00:00:00+00,No
-9287806.09776685,5249592.05572614,172,5103,Root Revival Acres,7601 Honeysuckle Rd,West Bloomfield,48324,Other,248-752-6618,http://www.facebook.com/rootrevival/?ref=page_internal,Yes,No,No,No,No,No,No,No,No,No,No,No,No,Yes,"Vegetables (organic, not certified)",2020/08/20 00:00:00+00,No
-9257175.6053775,5233983.72849208,173,5104,Triple B Honey,26561 Dundee Rd,Huntington Woods,48070,Honey,248-541-4968,http://www.facebook.com/triplebhoneyllc/?ref=page_internal,Unknown,No,No,No,Yes,No,No,No,No,No,No,No,No,No,Honey,2020/08/20 00:00:00+00,No
-9290066.55760553,5277813.67978982,174,5105,Clarkston Farm,8294 1/2 Rattalee Lake Rd,Clarkston,48348,Other,248-321-4154,http://www.facebook.com/clarkstonfarm/?ref=page_internal,Yes,No,No,No,No,No,No,No,No,No,No,No,No,Yes,"Vegetables (organic, not certified)",2020/08/20 00:00:00+00,No
-9291044.90107963,5279936.52153763,175,5106,Bell Ridge Gardens,8660 Kier Rd,Clarkston,48348,Other,810-874-4207,None,Yes,No,No,No,No,No,No,No,No,No,No,No,No,Yes,Seasonal fruits and vegetables,2020/08/20 00:00:00+00,No
-9254937.13596858,5277423.60860396,176,5108,Rainbow Basket Egg Farm,1700 N Rochester Rd,Oakland Township,48363,Meat,248-385-6892,http://www.facebook.com/rainbowbasketeggfarm/,Unknown,No,No,No,No,Yes,No,No,No,No,No,No,No,No,"Meat chicken, ducks, quail and Heritage turkeys.",2019/07/12 00:00:00+00,No
-9266264.90254327,5279069.94508125,177,5500,Bitter Tom's Distillery,120 S Broadway St,Lake Orion,48362,Brewery/Winery/Distillery,248-690-9535,http://bittertomsdistillery.com/,No,No,No,No,No,No,No,No,No,No,No,No,Yes,No,"Vodka, Gin, Bourbon",2020/08/20 00:00:00+00,No
-9303165.85430092,5227074.18925961,178,5900,Chubb E Acres Farm,21345 Chubb Rd,Northville,48167,Dairy,517-202-7989,http://www.chubbeacresfarm.com/,Unknown,No,Yes,No,No,No,No,No,No,No,No,No,No,No,Goat milk and cheese,2020/08/20 00:00:00+00,No
-9303165.85430092,5227074.18925961,179,5901,Chubb E Acres Farm,21345 Chubb Rd,Northville,48167,Meat,517-202-7989,http://www.chubbeacresfarm.com/,Unknown,No,No,No,No,Yes,No,No,No,No,No,No,No,No,"Chicken, turkey, duck",2020/08/20 00:00:00+00,No
-9303165.85430092,5227074.18925961,180,5903,Chubb E Acres Farm,21345 Chubb Rd,Northville,48167,Other,517-202-7989,http://www.chubbeacresfarm.com/,Unknown,No,No,No,No,No,No,No,No,No,No,No,No,Yes,Eggs and seasonal vegetables,2020/08/20 00:00:00+00,No
-9285708.00689572,5285623.97934393,181,6300,Great Lakes Staple Seeds,1724 S Hadley Rd,Ortonville,48462,Other,248-627-5271,http://greatlakesstapleseeds.com/,Unknown,No,No,No,No,No,No,No,No,No,No,No,No,Yes,"Sustainably grown seeds for homestead staple crops - grains, legumes, squash & more.",2020/08/20 00:00:00+00,No
-9283492.08221252,5282811.98507379,182,232,Cook's Dairy Farm,2950 Seymour Lake Rd,Ortonville,48462,Meat,248-627-3329,http://www.cooksfarmdairy.com,No,No,No,No,No,Yes,No,No,No,No,No,No,No,No,Premium ground beef.  Half and whole pigs.,2019/07/12 00:00:00+00,No
-9292123.13309101,5277516.51620687,183,242,Whitfield's Raw Honey,9235 Windemere Ct,Clarkston,48348,Honey,248-795-2073,http://www.simplyrawhoney.com,Unknown,No,No,No,Yes,No,No,No,No,No,No,No,No,No,Honey,2018/08/01 00:00:00+00,No
-9310332.41211328,5259135.41757173,184,653,Maria and David Huff Farm Products,1460 W Wardlow Rd,Highland,48357,Meat,248-842-9252,http://www.mdhufffarmproductsllc.smart-webcreator.com/product/,No,No,No,No,No,Yes,No,No,No,No,No,No,No,No,Pasture grass fed meat and poultry products,2019/07/12 00:00:00+00,No
-9254937.13596858,5277423.60860396,185,2302,Rainbow Basket Egg Farm,1700 N Rochester Rd,Oakland Township,48363,Other,248-385-6892,http://www.facebook.com/rainbowbasketeggfarm/,Unknown,No,No,No,No,No,No,No,No,No,No,No,No,Yes,Eggs,2020/08/20 00:00:00+00,No
-9290113.26159108,5283406.01343793,186,2303,Polk-Around Farm,1200 Bald Eagle Lake Rd,Ortonville,48462,Honey,810-814-3699,http://www.polkaroundfarm.com/faq.html,Unknown,No,No,No,Yes,No,No,No,No,No,No,No,No,No,"Honey, maple syrup",2019/07/12 00:00:00+00,No
-9266567.17942882,5290162.70924054,187,3500,East River Organic Farm,2265 N Oxford Rd,Oxford,48371,Meat,248-613-4001,http://www.eastriverorganic.com/,Yes,No,No,No,No,Yes,No,No,No,No,No,No,No,No,"Beef, turkey chicken, pork, lamb",2020/08/20 00:00:00+00,No
-9276352.50657676,5290886.89233193,188,3900,Golden Bee Farm,2160 Shipman Rd,Oxford,48371,Honey,248-572-3662,http://www.goldenbeefarm.com/,Unknown,No,No,No,Yes,No,No,No,No,No,No,No,No,No,Honey,2020/08/20 00:00:00+00,No
-9254640.17306794,5272695.27788547,189,4302,Fogler’s Greenhouse & Farm Market,3979 N Rochester Rd,Rochester,48306,Nursery/Greenhouse,248-652-3614,http://www.foglersgreenhouse.com,No,No,No,No,No,No,No,No,No,No,No,No,No,No,,2020/08/20 00:00:00+00,Yes
-9273757.06417511,5270813.37937413,190,4700,The Lake Orion Honey Company,,Lake orion,48359,Honey,248-391-4329,http://www.lakeorionhoney.com/?fbclid=IwAR1TGEr7eandYGZg81uLhUDDVFW0-IuVNRGLatF_U-b3DhPgg63gToLHTnI,Unknown,No,No,No,Yes,No,No,No,No,No,No,No,No,No,Honey and will rescue/rehome honey bees,2020/08/20 00:00:00+00,No
-9266567.17942882,5290162.70924054,191,5107,East River Organic Farm,2265 N Oxford Rd,Oxford,48371,Other,248-613-4001,http://www.eastriverorganic.com/,Yes,No,No,No,No,No,No,No,No,No,No,No,No,Yes,"Eggs, vegetables and herbs",2020/08/20 00:00:00+00,No
-9255414.71465936,5228729.0560738,192,5501,The Ferndale Project,567 Livernois St,Ferndale,48220,Brewery/Winery/Distillery,248-556-5512,http://www.ferndaleproject.com/,No,No,No,No,No,No,No,No,No,No,No,No,Yes,No,Beer,2020/08/20 00:00:00+00,No
-9264656.37076564,5256399.09428096,193,5502,My Garden Produce,3157 Auburn Rd,Auburn Hills,48326,Farmers Market,,<Null>,Unknown,No,No,Yes,No,No,No,No,No,No,No,No,No,No,Seasonal fruits and vegetables,2020/08/20 00:00:00+00,No
-9303165.85430092,5227074.18925961,194,5902,Chubb E Acres Farm,21345 Chubb Rd,Northville,48167,Honey,517-202-7989,http://www.chubbeacresfarm.com/,Unknown,No,No,No,Yes,No,No,No,No,No,No,No,No,No,Honey,2020/08/20 00:00:00+00,No
-9295816.01013075,5277563.88707933,195,6702,Violassi Family Farm,10850 Rattalee Lake Rd,Davisburg,48350,Honey,248-670-5269,http://www.facebook.com/ViolassiFamilyFarm,Unknown,No,No,No,Yes,No,No,No,No,No,No,No,No,No,Honey,2020/08/20 00:00:00+00,No
-9276352.50657676,5290886.89233193,196,6703,Golden Bee Farm,2160 Shipman Rd,Oxford,48371,Other,248-572-3662,http://www.goldenbeefarm.com/,Unknown,No,No,No,No,No,No,No,No,No,No,No,No,Yes,"Eggs, wool fiber",2020/08/20 00:00:00+00,No
-9310332.41211328,5259135.41757173,197,6704,Maria and David Huff Farm Products,1460 W Wardlow Rd,Highland,48357,Other,248-842-9252,http://www.mdhufffarmproductsllc.smart-webcreator.com/product/,No,No,No,No,No,No,No,No,No,No,No,No,No,Yes,"Naturally-grown produce, maple syrup",2020/08/20 00:00:00+00,No
-9255386.77613718,5229268.3382479,198,6705,Schramm's Mead Production Facility,914 Livernois St,Ferndale,48220,Brewery/Winery/Distillery,248-439-5000,http://www.facebook.com/SchrammsMead/?ref=page_internal,No,No,No,No,No,No,No,No,No,No,No,No,Yes,No,Mead,2020/09/15 00:00:00+00,No
