annee,commune_code_insee,id_salle,nom,adresse,code_postal,commune,notation,libelle_notation,direction_artistique,personnel_administratif_technique,scene,loges,regie,site_internet,proprietaire,exploitant,jauge_debout,jauge_assis,jauge_PV,lat,long,accessibilite,hauteur_utile
2013,56001,C_56001100,Maison du Temps Libre,Rue Saint-Hilaire,56350,Allaire,2,salle peu équipée,Non,Non,Oui,,,www.allaire.fr,Commune,Commune,690,230,690,"47,66","-2,16452",Salle et scène inaccessibles aux personnes à mobilité réduite,
2013,56002,C_56002100,Salle multifonctions de l'Espace du Lenn,Rue du Lenn,56190,Ambon,5,salle de spectacle multifonctions,Non,Non,Oui,1 loge collective avec sanitaires et miroirs,,www.ambon.fr,Commune,Commune,1100,400,1359 pour l'ensemble du bâtiment,"47,55","-2,54798",Salle accessible aux personnes à mobilité réduite,"4,80m"
2013,56003,C_56003100,Auditorium de la Médiathèque,Rue Plessis d'Arradon,56610,Arradon,4,salle de spectacle multifonctions,Non,Non,Oui,,"1 régie vitrée en fond de salle. 2 Rac avec lecteurs DVD, ampli home cinéma, 1 table de mixage, gradateurs projecteurs.",www.arradon.com,Commune,Commune,80,73,nc,"47,63","-2,82653",Salle accessible aux personnes à mobilité réduite,"4,00m"
2013,56003,C_56003101,La Lucarne,Rue de l'île Boëdic BP11,56610,Arradon,6,salle de spectacle,Oui,Oui,Oui,2 loges avec douches,"1 régie en fond de salle, derrière les gradins",www.lalucarne-arradon.fr,Commune,Commune,700,300,1416,"47,63","-2,822038",Salle et scène accessibles aux personnes à mobilité réduite,"8,30m"
2013,56004,C_56004100,Salle polyvalente,Rue du Stade,56190,Arzal,1,salle non équipée,Non,Non,Oui,,,www.arzal.fr,Commune,Commune,300,200,300 pour la salle polyvalente,"47,51","-2,37709",Salle accessible aux personnes à mobilité réduite,"2,30m"
2013,56005,C_56005100,La Voilerie Danses,"ZA du Rédo, rue des Calfats",56640,Arzon,1,salle non équipée,Non,Oui,Non,,,www.soniconedanse.com/,Isabelle Lefèvre,Association Son'icone Danse,50,50,50,"47,55","-2,88428",Salle accessible aux personnes à mobilité réduite,"3,25m"
2013,56005,C_56005101,Maison du Port,"Place des Huniers, Port du Crouesty",56640,Arzon,2,salle peu équipée,Non,Oui,Oui,,,www.crouesty.fr,Commune d'Arzon,Office de Tourisme d'Arzon,336,220,336,"47,55","-2,89035",Salle accessible aux personnes à mobilité réduite,"4,40m"
2013,56005,C_56005102,Moulin de Pen Castel,rue de Keravello,56640,Arzon,1,salle non équipée,Non,Oui,Non,,,www.moulindepencastel.over-blog.com,Commune d'Arzon,Office de Tourisme d'Arzon,80,60,nc,"47,55","-2,869084",Salle accessible aux personnes à mobilité réduite,"3,00m"
2013,56006,C_56006100,Salle multifonctions,Rue du Verger,56800,Augan,3,salle peu équipée,Non,Non,Oui,,,,Commune,Commune,400,250,nc,"47,92","-2,28075",Salle accessible aux personnes à mobilité réduite,"2,95m"
2013,56007,C_56007100,Centre culturel Athéna,Place du Gohlérez,56400,Auray,6,salle de spectacle,Oui,Oui,Oui,"4 loges de 4 à 6 personnes, avec douche et sanitaires","1 poursuite en fond de salle, régie au-dessus des balcons, axe central de la salle",www.auray.fr,Commune,Commune,1234,712,nc,"47,67","-2,9892",Salle accessible aux personnes à mobilité réduite,"8,50m"
2013,56007,C_56007101,Le Petit Théâtre,103 place de la République,56400,Auray,3,salle peu équipée,Non,Non,Oui,,,www.auray.fr,Commune,Commune,210,190,210,"47,67","-2,98332","Salle accessible aux personnes à mobilité réduite par la mairie, par conséquent seulement en journée.","4,40m"
2013,56009,C_56009100,Salle Polyvalente,23 rue Claude Monnet,56360,Bangor,2,salle peu équipée,Non,Non,Oui,,,www.bangor.fr,Commune,Commune,252,100,nc,"47,32","-3,18889",Salle accessible aux personnes à mobilité réduite,"2,85m"
2013,56010,C_56010100,Auditorium de la Maison des Arts,Rue Emile Le Labourer,56150,Baud,4,salle de spectacle multifonctions,Non,Oui,Oui,une salle de classe attenante peut faire office de loge,,www.baud-communaute.fr/la-maison-des-arts/,Commune,Commune,120,80,246 pour l'ensemble du bâtiment,"47,87","-3,01406",Salle et scène accessibles aux personnes à mobilité réduite,
2013,56010,C_56010101,Complexe du Scaou?t,Rue Emile Le Labourer,56150,Baud,5,salle de spectacle multifonctions,Non,Non,Oui,"1 loge avec sanitaire, accès à la scène par jardin",,www.mairie-baud.fr,Commune,Commune,700,500,1529 pour l'ensemble du bâtiment,"47,87","-3,01406",Salle accessible aux personnes à mobilité réduite,"4,25m"
2013,56011,C_56011100,Salle polyvalente du Bois Joli,Le Bois Joli,56350,Béganne,4,salle de spectacle multifonctions,Non,Non,Oui,,,www.beganne.fr,Commune,Commune,300,180,nc,"47,6","-2,24331",Salle et scène inaccessibles aux personnes à mobilité réduite,"2,90m"
2013,56012,C_56012100,Salle multifonctions,26 rue St Cyr Coetquidan,56380,Beignon,4,salle de spectacle multifonctions,Non,Non,Oui,1 loge,,,Commune,Commune,338,338,333,"47,97","-2,17012",Salle accessible aux personnes à mobilité réduite,"3,65m"
2013,56013,C_56013100,Salle des Astéries,1 allée des Astéries,56550,Belz,0,salle non équipée,Non,Non,Non,,,www.mairie-belz.fr,Commune,Commune,300,180,nc,"47,67","-3,16952",Salle accessible aux personnes à mobilité réduite,"2,50m"
2013,56014,C_56014100,Salle polyvalente,Le Bourg,56240,Berné,3,salle peu équipée,Non,Non,Oui,,,www.berne-morbihan.fr,Commune,Commune,850,400,850,48,"-3,39352",Salle accessible aux personnes à mobilité réduite,"2,40m"
2013,56015,C_56015100,Salle culturelle Le Verger,Rue du Verger,56230,Berric,4,salle de spectacle multifonctions,Non,Oui,Oui,2 loges avec douche et sanitaires,,,Commune,Commune,1000,495,1454 pour l'ensemble du bâtiment,"47,63","-2,52482",Salle accessible aux personnes à mobilité réduite,"4,50m"
2013,56016,C_56016100,Salle polyvalente,Rue Maralys,56310,Bieuzy,2,salle peu équipée,Non,Non,Oui,,,www.bieuzy.fr,Commune,Commune,400,280,nc,"47,99","-3,06406",Salle accessible aux personnes à mobilité réduite,"2,45m"
2013,56017,C_56017100,Salle des fêtes,Rue de la Claie,56500,Bignan,5,salle de spectacle multifonctions,Non,Non,Oui,"2 loges avec miroirs, 2 lavabos et des sanitaires",,www.mairie-bignan.fr,Commune,Commune,656,300,656,"47,88","-2,77173",Salle accessible aux personnes à mobilité réduite,"4,35m"
2013,56019,C_56019100,Salle polyvalente,Le Bourg,56420,Billio,0,salle non équipée,Non,Non,Non,,,www.billio.fr,Commune,Commune,200,130,nc,"47,87","-2,6332",Salle et scène inaccessibles aux personnes à mobilité réduite,"3,60m"
2013,56020,C_56020100,Salle des associations,Place des Tilleuls,56140,Bohal,0,salle non équipée,Non,Non,Non,,,www.bohal.fr,Commune,Commune,50,50,nc,"47,78","-2,43788",Salle accessible aux personnes à mobilité réduite,"3,00m"
2013,56020,C_56020101,Salle multifonctions,Avenue du Stade,56140,Bohal,4,salle de spectacle multifonctions,Non,Non,Oui,1 loge avec sanitaires,,www.bohal.fr,Commune,Commune,500,200,345,"47,78","-2,44173",Salle accessible aux personnes à mobilité réduite,"5,20m"
2013,56021,C_56021100,Espace Saint-Exupéry - Salle Argoat,Rue Joseph Le Bouille,56700,Brandérion,5,salle de spectacle multifonctions,Non,Non,Oui,"1 local côté jardin qui fait office de régie ou de loge, 1 local avec miroir qui peut servir de loge également mais pas équipés, pas de sanitaires. ",,www.branderion.com,Commune,Commune,300,300,924 pour l'ensemble du bâtiment,"47,8","-3,2016",Salle accessible aux personnes à mobilité réduite,"3,90m"
2013,56022,C_56022100,Salle de l'Etang de la Forêt,L'Etang de la Foret,56390,Brandivy,0,salle non équipée,Non,Non,Non,,,www.brandivy.fr,Commune,Commune,100,100,nc,"47,79","-2,9167",Salle accessible aux personnes à mobilité réduite,"3,20m"
2013,56023,C_56023100,Le Spoum,Manoir de Keryvallan,56400,Brech,5,salle de spectacle multifonctions,Oui,Oui,Oui,"Possibilité de loge à l'étage dans le studio de répétition, grand espace lumineux avec douche, WC et lavabo",,www.theatre-ecume.org,Alain Guhur,Compagnie du Théâtre de l'Ecume,non,95,103,"47,7","-3,00725",Salle accessible aux personnes à mobilité réduite,"3,45m"
2013,56024,C_56024100,Espace Dr. Jean Saulnier,Rue Saint-Louis,56580,Bréhan,4,salle de spectacle multifonctions,Non,Non,Oui,,1 régie vitrée en fond de salle côté cour,www.brehan.fr,Commune,Commune,450,300,nc,"48,06","-2,68812",Salle accessible aux personnes à mobilité réduite,"2,70m"
2013,56024,C_56024101,Pôle associatif St Louis,3 impasse St Louis,56580,Bréhan,2,salle peu équipée,Non,Non,Oui,,,www.brehan.fr,Commune,Commune,nc,nc,nc,"48,06","-2,6865331",Salle accessible aux personnes à mobilité réduite,"2,70m"
2013,56025,C_56025100,Salle Le Verger,Rue du Verger,56430,Brignac,1,salle non équipée,Non,Non,Oui,,,,Commune,Commune,150,120,180,"48,12","-2,36673",Salle accessible aux personnes à mobilité réduite,"2,30m"
2013,56026,C_56026100,Salle polyvalente,Rue Poulna,56310,Bubry,1,salle non équipée,Non,Non,Oui,,,www.cc-plouay.fr,Commune,Commune,350,300,350,"47,96","-3,17736",Salle accessible aux personnes à mobilité réduite,"3,50m"
2013,56027,C_56027100,Salle de Buléon,,56420,Buléon,1,salle non équipée,Non,Non,,,,,,,250,250,nc,"47,93","-2,6756423",,
2013,56028,C_56028100,Salle des Tilleuls,Rue de la Mairie,56220,Caden,5,salle de spectacle multifonctions,Non,Non,Oui,1 loge avec douche et sanitaires. Elle est utilisée actuellement comme local rangement,1 régie en fond de salle,,Commune,Commune,non,232,232,"47,63","-2,28427",Salle accessible aux personnes à mobilité réduite,"4,65m"
2013,56030,C_56030100,Salle polyvalente,1 place de la Mairie,56130,Camoël,0,salle non équipée,Non,Non,Non,,,www.camoel.fr,Commune,Commune,150,100,nc,"47,48","-2,39721",Salle accessible aux personnes à mobilité réduite,"3,10m"
2013,56031,C_56031100,Salle multifonctions du Petit Bois,Le Petit Bois,56330,Camors,3,salle peu équipée,Non,Non,Oui,2 petits locaux à jardin et cour. Celui qui se trouve à jardin a des WC et 1 lavabo.,,www.camors56.com,Commune,Commune,420,320,420,"47,85","-3,01454",Salle accessible aux personnes à mobilité réduite,"2,80m"
2013,56032,C_56032100,Salle polyvalente,Rue de l'Etang,56800,Campénéac,1,salle non équipée,Non,Non,Oui,,,www.campeneac.fr,Commune,Commune,350,300,1013 pour l'ensemble du bâtiment,"47,96","-2,28934",Salle accessible aux personnes à mobilité réduite,"5,00m"
2013,56033,C_56033100,Salle polyvalente,Rue du Bois Vert,56910,Carentoir,2,salle peu équipée,Non,Non,Podium,,,www.carentoir.com,Commune,Commune,300,250,507 pour l'ensemble du bâtiment,"47,81","-2,13851",Salle accessible aux personnes à mobilité réduite,"4,40m"
2013,56034,C_56034100,Auditorium du Centre culturel Terraqué,26 rue du Tumulus,56340,Carnac,5,salle de spectacle multifonctions,Oui,Oui,Oui,1 loge avec sanitaire. Accès par jardin,1 régie vitrée en fond de salle,www.terraque.fr,Commune,Commune,non,99,nc,"47,58","-3,07634",Salle et scène accessibles aux personnes à mobilité réduite,"4,30m"
2013,56034,C_56034101,Salle du Ménec,Chemin du Nilestrec,56340,Carnac,5,salle de spectacle multifonctions,Non,Non,Oui,2 petites loges individuelles avec miroir mais sans point d'eau.,,www.carnac.fr,Commune,Commune,350,250,nc,"47,59","-3,08587",Salle accessible aux personnes à mobilité réduite,"3,60m"
2013,56035,C_56035100,Salle polyvalente,16 rue Saint Nicolas,56140,Caro,2,salle peu équipée,Non,Non,Podium,,,www.mairie-caro56.fr/,Commune,Commune,314,300,314,"47,86","-2,32193",Salle accessible aux personnes à mobilité réduite,"3,00m"
2013,56036,C_56036100,Salle des fêtes de Kergoff,Kergoff,56850,Caudan,5,salle de spectacle multifonctions,Non,Oui,Oui,"3 loges avec douche, WC et 2 lavabos",,www.caudan.fr,Commune,Commune,1175,900,1270 pour l'ensemble du bâtiment,"47,81","-3,35775",Salle accessible aux personnes à mobilité réduite,"3,30m"
2013,56038,C_56038100,Salle communale,23 rue Yves Rocher,56200,La Gacilly,1,salle non équipée,Non,Non,Oui,,,www.lachapellegaceline.fr,Commune,Commune,nc,nc,89,"47,79","-2,10748",Salle accessible aux personnes à mobilité réduite,"3,00m"
2013,56038,C_56038101,Salle de réunion,34 rue Yves Rocher,56200,La Gacilly,2,salle peu équipée,Non,Non,Non,,1 régie vitrée en fond de salle,www.lachapellegaceline.fr,Commune,Commune,89,60,89 pour l'ensemble du bâtiment,"47,79","-2,10748",Salle accessible aux personnes à mobilité réduite,"3,00m"
2013,56039,C_56039100,Salle polyvalente,Rue du Château d'eau,56500,La Chapelle-Neuve,2,salle peu équipée,Non,Non,Oui,1 local à jardin peut servir de loge,,www.lachapelleneuve56.fr,Commune,Commune,nc,nc,nc,"47,86","-2,93987",Salle accessible aux personnes à mobilité réduite,"2,30m"
2013,56041,C_56041100,Salle des fêtes,Rue de la Libération,56480,Cléguérec,4,salle de spectacle multifonctions,Non,Non,Oui,1 petite loge en fond de scène avec WC et lavabo,,www.cleguerec.fr,Commune,Commune,620,400,nc,"48,12","-3,06778",Salle accessible aux personnes à mobilité réduite,"3,30m"
2013,56043,C_56043100,Espace de service et d'animation,Rue Renan Le Cunff,56430,Concoret,2,salle peu équipée,Non,Non,Oui,"1 local peut servir de loge, accès à la scène par jardin",,,Commune,Commune,300,200,484 pour l'ensemble du bâtiment,"48,06","-2,205445",Salle accessible aux personnes à mobilité réduite,"2,65m"
2013,56044,C_56044100,Salle socioculturelle,Les pâtures du blin,56200,Cournon,5,salle de spectacle multifonctions,Non,Non,Oui,1 loge,1 régie accessible avec une échelle,,Commune,Commune,nc,nc,340,"47,75","-2,09922",Salle accessible aux personnes à mobilité réduite,"3,90m"
2013,56046,C_56046100,Espace Les Chênes,Rue du stade,56950,Crac'h,6,salle de spectacle,Non,Non,Oui,"2 loges avec WC , accès à la scène par côté cour",1 régie vitrée,www.crach.fr,Commune,Commune,nc,nc,820 pour l'ensemble du bâtiment,"47,62","-3,00564",Salle et scène accessibles au personnes à mobilité réduite,"3,85m"
2013,56047,C_56047100,Salle des fêtes,Rue Saint-Yves,56580,Crédin,3,salle peu équipée,Non,Non,Oui,,,www.credin.fr,Commune,Commune,393,360,393,"48,03","-2,76538",Salle accessible aux personnes à mobilité réduite,"3,50m"
2013,56047,C_56047101,Salle polyvalente,Rue Saint-Yves,56580,Crédin,1,salle non équipée,Non,Non,Non,,1 sonorisation intégrée avec 8 enceintes,www.credin.fr,Commune,Commune,nc,nc,nc,"48,03","-2,76538",Salle accessible aux personnes à mobilité réduite,"3,40m"
2013,56048,C_56048100,Salle polyvalente,Rue de la Résistance,56540,Le Croisty,2,salle peu équipée,Non,Non,Oui,,,www.le.croisty.free.fr/,Commune,Commune,250,180,nc,"48,07","-3,36188",Salle accessible aux personnes à mobilité réduite,"2,55m"
2013,56053,C_56053100,Le Carré d'Arts,Avenue des Martyrs de la Résistance,56250,Elven,6,salle de spectacle,Oui,Oui,Oui,"1 loge collective avec miroir, lavabo, 2 douches et 2 WC. Des locaux au sous-sol avec WC et douche servent également de loges.",1 régie vitrée en fond de salle. Possibilité de l'installer en salle en retirant 6 sièges.,www.elven.fr,Commune,Commune,550,280,567,"47,74","-2,58478",Salle et scène accessibles aux personnes à mobilité réduite,"4,90m"
2013,56054,C_56054100,Salle polyvalente,Rue du grand large,56410,Erdeven,1,salle non équipée,Non,Non,Oui,,,www.ville-erdeven.com,Commune,Commune,471,471,nc,"47,64","-3,16326",Salle accessible aux personnes à mobilité réduite,"11,00m"
2013,56055,C_56055100,Cinéma La Rivière,11 boulevard du Général de Gaulle,56410,Etel,3,salle peu équipée,Non,Oui,Oui,,1 régie de cinéma,www.mairie-etel.com,Commune,Association Le Quai des Dunes,non,208,275,"47,66","-3,20229",Salle accessible aux personnes à mobilité réduite,"4,40m"
2013,56055,C_56055101,La Criée,Place des thoniers,56410,Etel,0,salle non équipée,Non,Non,Non,,,www.mairie-etel.com,Sagemore,Commune,nc,nc,nc,"47,66","-3,20725",Salle accessible aux personnes à mobilité réduite,"4,60m"
2013,56055,C_56055102,Salle des fêtes,13 boulevard du Général de Gaulle,56410,Etel,1,salle non équipée,Non,Non,Oui,,,www.mairie-etel.com,Commune,Commune,nc,240,390,"47,65","-3,20215",Salle accessible aux personnes à mobilité réduite,"2,40m"
2013,56056,C_56056100,Salle communale,Rue des Chênes,56490,Evriguet,1,salle non équipée,Non,Non,Non,,,,Commune,Commune,110,110,130,"48,08","-2,40944",Salle accessible aux personnes à mobilité réduite,"3,10m"
2013,56057,C_56057100,Salle polyvalente,Rue des Ecoles,56320,Le Faouët,5,salle de spectacle multifonctions,Non,Non,Oui,"2 loges, 1 à jardin et 1 à cour, avec WC et douches pour celle qui est à cour",,www.lefaouet.com,Commune,Commune,880,450,nc,"48,03","-3,48942",Salle accessible aux personnes à mobilité réduite,"4,00m"
2013,56058,C_56058100,Salle polyvalente,Route d'Assérac,56130,Férel,5,salle de spectacle multifonctions,Non,Non,Oui,"1 loge avec l'accès à la scène côté jardin avec accès extérieur, WC, lavabo et miroirs.",,www.mairie-ferel.fr,Commune,Commune,370,265,nc,"47,48","-2,34727",Salle accessible aux personnes à mobilité réduite,"3,60m"
2013,56059,C_56059100,Salle polyvalente,10 place de la Mairie,56120,Les Forges,1,salle non équipée,Non,Non,Podium,,,,Commune,Commune,280,250,290,"48,01742","-2,64648",Salle accessible aux personnes à mobilité réduite,"4,00m"
2013,56060,C_56060100,Salle polyvalente,15 rue de l'Oust,56200,Les Fougerêts,3,salle peu équipée,Non,Non,Podium,,, ,Commune,Commune,180,170,nc,"47,74","-2,21253",Salle accessible aux personnes à mobilité réduite,"3,40m"
2013,56061,C_56061100,Grande Salle,9 avenue des Archers,56200,La Gacilly,3,salle peu équipée,Non,Non,Podium,3 loges,,www.la-gacilly.fr,Commune,Commune,2990,1200,nc,"47,77","-2,13198",Salle accessible aux personnes à mobilité réduite,"12,00m"
2013,56061,C_56061101,Petite Salle,9 avenue des Archers,56200,La Gacilly,3,salle peu équipée,Non,Non,Podium,3 loges,,www.la-gacilly.fr,Commune,Commune,500,450,nc,"47,77","-2,13198",Salle accessible aux personnes à mobilité réduite,"4,40m"
2013,56062,C_56062100,Salle Eric Tabarly,8 route du Polygone,56680,Gâvres,0,salle non équipée,Non,Non,Non,,,www.gavres.fr ,Commune,Commune,nc,120,904 pour l'ensemble du bâtiment,"47,7","-3,35025",Salle accessible aux personnes à mobilité réduite,"3,30m"
2013,56063,C_56063100,Salle du lain,Allée du Lain,56530,Gestel,4,salle de spectacle multifonctions,Non,Non,Oui,,,,Commune,Commune,600,300,910 pour l'ensemble du bâtiment,"47,8","-3,43895",Salle accessible aux personnes à mobilité réduite,"3,05m"
2013,56064,C_56064100,Salle Saint Léon,Rue Saint Léon,56200,La Gacilly,1,salle non équipée,Non,Non,Oui,,,www.glenac.com,Commune,Commune,100,90,89,"47,73","-2,13204",Salle accessible aux personnes à mobilité réduite,"2,75m"
2013,56065,C_56065100,Salles des fêtes,Rue de la Libération,56800,Gourhel,2,salle peu équipée,Non,Non,Oui,2 locaux à cour et jardin peuvent servir de loges,,,Commune,Commune,180,200,250,"47,94","-2,36087",Salle accessible aux personnes à mobilité réduite,"2,45m"
2013,56066,C_56066100,Salle des fêtes de Tronjoly,Tronjoly,56110,Gourin,5,salle de spectacle multifonctions,Non,Oui,Oui,"2 loges avec douche, WC, lavabo et miroir. L'une des deux a un accès salle en plus de l'accès scène",,www.gourin.fr,Commune,Commune,920,650,944,"48,14","-3,61148",Salle accessible aux personnes à mobilité réduite,"5,55m"
2013,56067,C_56067100,Espace 2000,Rue de Naves,56390,Grand-Champ,5,salle de spectacle multifonctions,Non,Non,Oui,"1 loge commune avec deux douches, deux WC et une cloison amovible",1 régie vitrée en fond de salle.,www.grandchamp.fr,Commune,Commune,1200,559,nc,"47,76","-2,85176",Salle accessible aux personnes à mobilité réduite,"11,20m"
2013,56067,C_56067101,Salle Joseph Le Cheviller,Rue de Penhoet,56390,Grand-Champ,4,salle de spectacle multifonctions,Non,Non,Oui,"1 petite loge avec accès scène et extérieur. WC, lavabo, miroir.",1 petit local régie avec ouverture vitrée sur la salle,www.grandchamp.fr,Commune,Commune,non,145,150,"47,76","-2,84593",Salle accessible aux personnes à mobilité réduite,"3,25m"
2013,56068,C_56068100,Salle polyvalente,Le Bourg,56120,La Grée-Saint-Laurent,0,salle non équipée,Non,Non,Non,,,,Commune,Commune,130,126,nc,48,"-2,500184",Salle accessible aux personnes à mobilité réduite,"3,00m"
2013,56069,C_56069100,Salles des fêtes,Place Abbé Uzel,56590,Groix,3,salle peu équipée,Non,Non,Oui,,,www.groix.fr,Commune,Commune,500,190,nc,"47,64","-3,45735",Salle accessible aux personnes à mobilité réduite,"3,50m"
2013,56071,C_56071100,Maison des associations,4 rue du Stade,56420,Guéhenno,4,salle de spectacle multifonctions,Non,Non,Oui,,,www.guehenno.fr,Commune,Commune,195,195,198,"47,85","-2,91007",Salle accessible aux personnes à mobilité réduite,"2,75m"
2013,56072,C_56072100,Salle Ellébore,Rue de la Grotte,56920,Gueltas,2,salle peu équipée,Non,Non,Oui,,,www.gueltas.fr,Commune,Commune,340,320,"350 pour la salle Ellébore, 585 pour l'ensemble du bâtiment","48,09","-2,7914",Salle accessible aux personnes à mobilité réduite,"2,60m"
2013,56073,C_56073100,Salle polyvalente,Rue Feuillet,56160,Guémené-sur-Scorff,4,salle de spectacle multifonctions,Non,Non,Oui,,1 local régie,www.guemenesurscorff.com/,Commune,Commune,400,400,408,"48,07","-3,2043",Salle accessible aux personnes à mobilité réduite,"3,80m"
2013,56074,C_56074100,Salle polyvalente,Rue de Manéguen,56150,Guénin,2,salle peu équipée,Non,Non,Oui,,,www.guenin56.fr,Commune,Commune,300,300,310 pour l'ensemble du bâtiment,"47,91","-2,97715",Salle accessible aux personnes à mobilité réduite,"4,30m"
2013,56075,C_56075100,Salle de la Gare,Place Saint-Michel,56382,Guer ,6,salle de spectacle,Non,Non,Oui,"2 loges avec sanitaires, accès à la scène côté jardin",1 régie vitrée en fond de salle,www.ville-guer.fr,Commune,Commune,470,300,nc,"47,91","-2,12351",Salle accessible aux personnes à mobilité réduite,"5,60m"
2013,56076,C_56076100,Salle polyvalente,Rue de la Vallée,56310,Guern,2,salle peu équipée,Non,Non,Oui,,,www.guern.free.fr,Commune,Commune,260,200,275,"48,03","-3,09214",Salle accessible aux personnes à mobilité réduite,"4,15m"
2013,56078,C_56078100,L'Estran,Allée de Kerprat,56520,Guidel,6,salle de spectacle,Oui,Oui,Oui,"2 loges lumineuses avec miroirs, WC douches, lavabos et 1 salon avec canapés, frigo, évier","1 régie ouverte en fond de salle, emplacement possible en salle",www.lestran.net,Commune,Commune,800,350,1321 pour l'ensemble du bâtiment,"47,79","-3,48601","Salle, scène et loges accessibles aux personnes à mobilité réduite","9,00m"
2013,56080,C_56080100,Foyer municipal,Rue du 19 mars 1962,56490,Guilliers,1,salle non équipée,Non,Non,Oui,,,,Commune,Commune,280,280,nc,"48,04","-2,40499",Salle accessible aux personnes à mobilité réduite,"2,80m"
2013,56081,C_56081100,Musée de la Gare,117 rue de la Gare,56560,Guiscriff,0,salle non équipée,Non,Oui,Non,,,www.guiscriff.fr,Commune,Association Ar Marc'h Du,nc,nc,nc,"48,06","-3,65365",Salle accessible aux personnes à mobilité réduite,"3,50m"
2013,56081,C_56081101,Salle polyvalente,Kerlabour,56560,Guiscriff,4,salle de spectacle multifonctions,Non,Non,Oui,,,www.guiscriff.fr,Commune,Commune,700,400,720,"48,05","-3,65314",Salle accessible aux personnes à mobilité réduite,"2,60m"
2013,56083,C_56083100,Bouffou Théâtre à la Coque,3 rue de la Paix,56700,Hennebont,6,salle de spectacle,Oui,Oui,Oui,1 loge au-dessus de la scène avec douche et WC,1 régie ouverte en fond de salle,www.bouffoutheatre.com,Serge Boulier et Hélène Fillault,Bail emphytéotique avec la Compagnie BOUFFOU Théâtre,nc,90,90,"47,8","-3,28272",Salle accessible aux personnes à mobilité réduite,"5,00m"
2013,56083,C_56083101,Salle polyvalente du Valon Boisé,16 rue de Tagliaferri,56700,Hennebont,1,salle non équipée,Non,Non,Oui,,,,Commune,Commune,nc,200,nc,"47,82","-3,25119",Salle accessible aux personnes à mobilité réduite,"3,00m"
2013,56083,C_56083102,Trio - Centre socioculturel,15 rue Gabriel Péri,56700,Hennebont,6,salle de spectacle,Oui,Oui,Oui,"2 loges avec miroir, 1 douche, sanitaires, lavabo et 1 loge sans miroir","régie suspendue derrière le gradin, s'installe également dans le gradin au 3e ou dernier rang et devant le gradin, selon la configuration de 184 ou 280 places",www.ville-hennebont.fr,Commune,Commune,500,280,530 pour l'ensemble du bâtiment,"47,81","-3,27554","Salle, scènes et loges accessibles aux personnes à mobilité réduite","4,00m"
2013,56084,C_56084100,L'Estran,,56450,Le Hézo,3,salle peu équipée,Non,Non,Non,"1 espace réservé aux artistes avec 2 petits vestiaires, WC, lavabo et miroir",,www.lehezo.com,Commune,Commune,250,220,nc,"47,58","-2,69139",Salle accessible aux personnes à mobilité réduite,"3,70m"
2013,56086,C_56086100,Salle Communale,Le Bourg,56170,Houat,1,salle non équipée,Non,Non,Non,,,www.communedehouat.fr,Commune,Commune,100,70,nc,"47,39","-2,95708",Salle accessible aux personnes à mobilité réduite,"2,53m"
2013,56088,C_56088100,Salle du Gourail,Rue du Gourail,56840,Ile d'Arz,2,salle peu équipée,Non,Non,Oui,,,www.iledarz.fr,Commune,Commune,150,100,nc,"47,59","-2,80411",Salle accessible aux personnes à mobilité réduite,"4,55m"
2013,56089,C_56089100,Espace du Scorff,rue du Levant,56240,Inguiniel,3,salle peu équipée,Non,Non,Oui,,,www.cc-plouay.fr,Commune,Commune,420,400,430,"47,98","-3,28071",Salle accessible aux personnes à mobilité réduite,"3,30m"
2013,56090,C_56090100,La Charpenterie,1 Mail François Giovannelli,56650,Inzinzac-Lochrist,2,salle peu équipée,Non,Oui,Non,,,www.inzinzac-lochrist.fr,Commune,Commune,330,150,nc,"47,83","-3,25313",Salle accessible aux personnes à mobilité réduite,"3,45m"
2013,56090,C_56090101,Trio - Théâtre du Blavet,Place François Mitterrand,56650,Inzinzac-Lochrist,6,salle de spectacle,Oui,Oui,Oui,"1 petite loge à jardin, 1 plus grande à l'étage, les deux avec douche, toilettes, lavabo, haut-parleur avec écoute de scène et annonce de la régie",1 régie,www.triotheatre.com/,Commune,Commune,1219,472,nc,"47,83","-3,25106",Salle accessible aux personnes à mobilité réduite,"7,50m"
2013,56091,C_56091100,Centre culturel L'Ecusson,Rue de l'Ecusson,56120,Josselin,5,salle de spectacle multifonctions,Non,Oui,Oui,2 loges avec sanitaires et douches,1 régie mobile avec 1 pupitre ADB et une console son,www.josselin.com,Commune,Commune,830,680,nc,"47,96","-2,543936",Salle accessible aux personnes à mobilité réduite,"6,40m"
2013,56092,C_56092100,Salle polyvalente,14 rue de l'Argoat,56920,Kerfourn,3,salle peu équipée,Non,Non,Oui,2 petits locaux sur scène à cour et jardin peuvent faire office de loges,,www.kerfourn.fr,Commune,Commune,340,300,350,"48,04","-2,83388",Salle accessible aux personnes à mobilité réduite,"3,20m"
2013,56093,C_56093100,Salle polyvalente,Le Bourg,56300,Kergrist,4,salle de spectacle multifonctions,Non,Non,Non,1 petite loge avec lavabo et miroir,,www.kergrist.fr,Commune,Commune,220,180,nc,"48,15","-2,95446",Salle accessible aux personnes à mobilité réduite,"3,20m"
2013,56094,C_56094100,Salle de Kernours,Kernours-Maison Rouge,56700,Kervignac,2,salle peu équipée,Non,Non,Oui,Des salles à l'étage peuvent faire office de loges,,www.kervignac.com,Commune,Commune,nc,nc,nc,"47,76","-3,28832",Salle accessible aux personnes à mobilité réduite,"3,60m"
2013,56094,C_56094101,Salle Le Patronage,Rue de l'étang,56700,Kervignac,2,salle peu équipée,Non,Non,Oui,2 loges à jardin et à cour avec accès la scène. Elles ne communiquent pas,,www.kervignac.com,Commune,Commune,nc,nc,nc,"47,76","-3,23761",Salle accessible aux personnes à mobilité réduite,"2,60m"
2013,56096,C_56096100,Centre socioculturel,Rue de l'Océan,56690,Landaul,1,salle non équipée,Non,Non,Oui,,,,Commune,Commune,225,200,235,"47,75","-3,0771",Salle accessible aux personnes à mobilité réduite,"4,10m"
2013,56097,C_56097100,Salle polyvalente,Rue du Parc des sports,56690,Landévant,3,salle peu équipée,Non,Non,Oui,,,www.landevant.fr,Commune,Commune,800,240,1420 pour l'ensemble du bâtiment,"47,76","-3,12581",Salle et scène inaccessible aux personnes à mobilité réduite,"3,20m"
2013,56098,C_56098100,Espace Jean Vilar,Place Delaune,56600,Lanester,6,salle de spectacle,Oui,Oui,Oui,"1 loge à l'étage au-dessus de la scène avec douche, WC et lavabo",1 régie en fond de scène,www.lanester.com,Commune,Commune,400,188,nc,"47,77","-3,35333",Salle et scène accessibles aux personnes à mobilité réduite,
2013,56098,C_56098101,Théâtre des 2 Rivières,Rue Jean-Paul Sartre,56600,Lanester,6,salle de spectacle,Non,Non,Oui,"2 loges avec douche, WC et lavabo, scène côté jardin",1 régie vitrée en fond de salle,www.compagniedelembarcadere.com ,Lycée Jean Macé (Région) & Commune,Lycée & Compagnie de l'Embarcadère,non,206,nc,"47,76","-3,34352",Salle accessible aux personnes à mobilité réduite,"6,30m"
2013,56098,C_56098102,Théâtre en plein air - Kerhervy,Kerhervy,56600,Lanester,3,salle peu équipée,Non,Non,Oui,Les loges sont construites lors du festival de Kerhervy,,www.lanester.com,Commune,Commune,non,350,nc,"47,77","-3,30084",Salle et scène accessibles aux personnes à mobilité réduite,
2013,56100,C_56100100,La Grande Boutique,3 rue des Milad,56630,Langonnet,4,salle de spectacle multifonctions,Oui,Oui,Oui,"1 petite loge avec douche, WC, lavabo, accès scène côté cour.",,www.lagrandeboutique.fr,Bertrand Dupont et Cécile Borne,Association La Grande Boutique,100,80,nc,"48,1","-3,49393",Salle accessible aux personnes à mobilité réduite,"2,80m"
2013,56100,C_56100101,Salle des fêtes,Route de Saint-Maur,56630,Langonnet,2,salle peu équipée,Non,Non,Oui,,,www.langonnet.fr,Commune,Commune,300,300,nc,"48,1","-3,49082",Salle accessible aux personnes à mobilité réduite,"3,60m"
2013,56101,C_56101100,"Auditorium Martine Millet, Espace des Médias et des Arts",12 Ter Rue Jean Moulin,56440,Languidic,5,salle de spectacle multifonctions,Non,Non,Oui,1 loge sans point d'eau,"1 régie en fond de salle, sans vitre mais accès devant la dernière rangée de sièges",www.languidic.fr,Commune,Commune,non,120,426 pour l'ensemble du bâtiment,"47,83","-3,15916",Salle et scène accessibles aux personnes à mobilité réduite,"5,00m"
2013,56101,C_56101101,Salle polyvalente Jo Huitel,Rue Anne de Bretagne,56440,Languidic,5,salle de spectacle multifonctions,Non,Non,Oui,,1 régie en fond de salle,www.languidic.fr,Commune,Commune,755,nc,765 pour l'ensemble du bâtiment,"47,83","-3,1559",Salle accessible aux personnes à mobilité réduite,"1,65m"
2013,56102,C_56102100,Salle Saint-Hubert,Rue de la Poste,56120,Lanouée,3,salle peu équipée,Non,Non,Oui,1 loge qui sert aussi de local rangement,,www.lanouee.fr,Commune,Commune,non,188,nc,48,"-2,581691",Salle et scène inaccessibles aux personnes à mobilité réduite,"5,40m"
2013,56102,C_56102101,Salle socioculturelle,Route de Trénédo,56120,Lanouée,3,salle peu équipée,Non,Non,Oui,,,www.lanouee.fr,Commune,Commune,460,1200,nc,48,"-2,57988",Salle accessible aux personnes à mobilité réduite,"2,35m"
2013,56103,C_56103100,Salle polyvalente,Rue des Forgerons,56120,Lantillac,1,salle non équipée,Non,Non,Oui,,,,Commune,Commune,250,160,260,"47,96","-2,654035",Salle accessible aux personnes à mobilité réduite,"2,50m"
2013,56104,C_56104100,Restaurant municipal,Le Bourg,56240,Lanvaudan,0,salle non équipée,Non,Non,Non,,,www.cc-plouay.fr,Commune,Commune,nc,nc,nc,"47,9","-3,26197",Salle accessible aux personnes à mobilité réduite,"2,30m"
2013,56104,C_56104101,Salle polyvalente,Rue Jean-Marie Pichon,56240,Lanvaudan,0,salle non équipée,Non,Non,Non,,,www.cc-plouay.fr,Commune,Commune,50,50,nc,"47,9","-3,26208",Salle accessible aux personnes à mobilité réduite,"2,60m"
2013,56105,C_56105100,Salle municipale,14 rue de la Mairie,56320,Lanvénégen,1,salle non équipée,Non,Non,Oui,,,,Commune,Commune,240,230,253,48,"-3,54008",Salle accessible aux personnes à mobilité réduite,"2,65m"
2013,56106,C_56106100,Le Cairn,Rue de Pen Lannic,56870,Larmor-Baden,6,salle de spectacle,Non,Non,Oui,"1 loge avec douche, WC et accès sur scène et l'extérieur",1 régie ouverte en fond de salle,www.larmorbaden.com,Commune,Commune,170,120,175,"47,58","-2,89489",Salle et scène accessibles aux personnes à mobilité réduite,"4,85m"
2013,56107,C_56107100,Salle des fêtes,Place Notre-Dame,56260,Larmor-Plage,4,salle de spectacle multifonctions,Non,Non,Oui,"1 loge avec WC et douche, accès direct sur l'extérieur. Accès à la scène par côté cour ",,www.larmor-plage.com,Commune,Commune,372,160,nc,"47,71","-3,38145",Salle accessible aux personnes à mobilité réduite,"2,85m"
2013,56109,C_56109100,Le Cube,Rue du Pré Fleuri,56190,Lauzach,3,salle peu équipée,Non,Non,Oui,,,,Commune,Commune,890,296,900,"47,61","-2,54195",Salle accessible aux personnes à mobilité réduite,"4,00m"
2013,56111,C_56111100,Salle polyvalente,Rue du Rodoué,56220,Limerzel,3,salle peu équipée,Non,Non,Oui,"1 loge possible dans un local qui se trouve à jardin, avec accès direct aux toilettes. Ce local sert de loge pour Festi'Mômes",,www.limerzel.fr,Commune,Commune,320,300,334,"47,64","-2,35167",Salle accessible aux personnes à mobilité réduite,"3,15m"
2013,56112,C_56112100,Salle socioculturelle,Rue du Stade,56460,Lizio,4,salle de spectacle multifonctions,Non,Non,Oui,,,www.lizio.fr,Commune,Commune,355,240,365,"47,87","-2,52282",Salle accessible aux personnes à mobilité réduite,"2,90m "
2013,56114,C_56114100,Salle de Lann Ivrec,Borvran,56360,Locmaria,0,salle non équipée,Non,Non,Non,,,www.locmaria-belle-ile.com,Commune,Commune,190,145,nc,"47,29","-3,0903",Salle non accessible aux personnes à mobilité réduite,"2,47m"
2013,56115,C_56115100,Maison des associations,Route de Pont Loho,56390,Locmaria-Grand-Champ,0,salle non équipée,Non,Non,Non,,,www.locmariagrandchamp.fr,Commune,Commune,120,120,nc,"47,76","-2,78717",Salle accessible aux personnes à mobilité réduite,"6,30m"
2013,56116,C_56116100,Salle de Locmariaquer,,56740,Locmariaquer,1,salle non équipée,Non,Non,,,,,Commune,Commune,nc,nc,nc,"47,57","-2,9451886",,
2013,56118,C_56118100,Salle Artimon,Place Jean Jaurès,56570,Locmiquélic,5,salle de spectacle multifonctions,Non,Non,Oui,"1 loge côté jardin avec WC, douche et lavabo. Petit espace peu équipé.",,www.ville-locmiquelic.fr,Commune,Commune,350,200,nc,"47,73","-3,34451",Salle accessible aux personnes à mobilité réduite,
2013,56118,C_56118101,Salle des fêtes,50 rue des Lavoirs,56570,Locmiquélic,1,salle non équipée,Non,Non,Oui,,,www.ville-locmiquelic.fr,Commune,Commune,300,250,nc,"47,73","-3,34162",Salle accessible aux personnes à mobilité réduite,"5,50m"
2013,56119,C_56119100,Salle Emeraude,Route de Locoal-Mendon,56550,Locoal-Mendon,6,salle de spectacle,Non,Oui,Oui,"1 loge avec sanitaires, accès à cour et à jardin",1 régie suspendue,www.locoal-mendon.fr,Commune,Commune,1130,600,1138 pour l'ensemble du bâtiment,"47,71","-3,11064",Salle accessible aux personnes à mobilité réduite,"5,30m"
2013,56120,C_56120100,Salle polyvalente,Route de Bignan,56390,Locqueltas,2,salle peu équipée,Non,Non,Oui,,,www.locqueltas.fr,Commune,Commune,400,300,nc,"47,76","-2,76857",Salle accessible aux personnes à mobilité réduite,"2,40m"
2013,56121,C_56121100,Auditorium de l'Ecole de Musique et Danse,7 rue Armand Guillemot,56100,Lorient,5,salle de spectacle multifonctions,Non,Oui,Oui,,1 régie en fond de salle,www.emdl.lorient.fr,Commune,Commune,non,170,640 pour l'ensemble du bâtiment,"47,74","-3,38852",Salle accessible aux personnes à mobilité réduite,"2,10m"
2013,56121,C_56121101,Espace Cosmao Dumanoir,84 boulevard Cosmao Dumanoir,56100,Lorient,6,salle de spectacle,Non,Oui,Oui,3 loges avec douche avec accès à la scène par jardin,1 régie en fond de salle,www.lorient.fr,Commune,Commune,1900,800,2210 pour l'ensemble du bâtiment,"47,75","-3,37379",Salle et scène inaccessibles aux personnes à mobilité réduite,"7,00m"
2013,56121,C_56121102,La Balise,2 rue Eugène Varlin,56100,Lorient,4,salle de spectacle multifonctions,Non,Non,Oui,"1 loge avec sanitaire, accès à la scène côté jardin",,www.lorient.fr,Commune,Commune,250,110,651 pour l'ensemble du bâtiment,"47,74","-3,39396",Salle et scène accessibles aux personnes à mobilité réduite,"5,50m"
2013,56121,C_56121103,Le City,3 rue Roger Salengro,56100,Lorient,6,salle de spectacle,Non,Oui,Oui,"1 loge avec miroir, sans sanitaires. Accès en fond de scène",1 régie en cours de travaux,www.lorient.fr,Commune,Association Plateau en toute liberté,non,130,nc,"47,76","-3,38712",Salle accessible aux personnes à mobilité réduite,"3,70m"
2013,56121,C_56121104,Le Manège,"Cité Allende, 12 rue Colbert",56100,Lorient,6,salle de spectacle,Oui,Oui,Oui,2 loges avec des sanitaires attenants avec accès direct côté cour à la scène ,1 régie en salle,www.mapl.biz,Commune,Association MAPL,350,0,350,"47,75","-3,35932",Salle accessible aux personnes à mobilité réduite,"5,50m"
2013,56121,C_56121105,Le Scenith,2 rue Georges Bizet,56100,Lorient,5,salle de spectacle multifonctions,Non,Non,Oui,2 loges avec accès à la scène côté cour,1 régie en fond de salle,www.lorient.fr,Commune,Commune,non,62,100 pour l'ensemble du bâtiment,"47,76","-3,37496",Salle accessible aux personnes à mobilité réduite,"2,60m"
2013,56121,C_56121106,Plateau des 4 Vents,2 rue du Professeur Mazé,56100,Lorient,6,salle de spectacle,Non,Oui,Oui,"1 loge avec douche, accès en",1 régie en fond de salle,www.lorient.fr,Commune,Commune,non,254,574 pour l'ensemble du bâtiment,"47,75","-3,37106",Salle accessible aux personnes à mobilité réduite,"7,00m"
2013,56121,C_56121107,Théâtre de la Chimère,"Cité Allende, 12 rue Colbert",56100,Lorient,6,salle de spectacle,Oui,Oui,Oui,1 loge sans sanitaires.,1 régie en fond de salle,http://theatredelachimere.pagesperso-orange.fr/accueil.htm,Commune,Association La Petite Chimère,non,70,nc,"47,75","-3,35966",Salle et scène accessibles aux personnes à mobilité réduite,"3,30m"
2013,56121,C_56121108,Théâtre de Lorient - CDDB,11 rue Claire Droneau,56100,Lorient,6,salle de spectacle,Oui,Oui,Oui,5 loges à l'étage dont 1 qui peut servir de buanderie. Accès en fond de scène,2 régies (1 fixe et 1 modulable en salle),www.letheatredelorient.fr,Le Clergé a signé un bail emphytéotique avec la Mairie de Lorient,Mise à disposition par la Mairie de Lorient au CDDB,338,278,nc,"47,74","-3,37441",Salle et scène accessibles aux personnes à mobilité réduite,"8,50m"
2013,56121,C_56121109,Théâtre de Lorient - Le Grand Théâtre,Place de l'Hôtel de Ville,56100,Lorient,6,salle de spectacle,Oui,Oui,Oui,"6 loges à l'étage avec sanitaires, douches, miroir. Accès en fond de scène. ",2 régies (1 fixe sous le balcon et 1 modulable en salle),www.letheatredelorient.fr,Commune,Commune,non,1034,2192 pour l'ensemble du bâtiment,"47,75","-3,36886",Salle et scène accessibles aux personnes à mobilité réduite,"16,70m"
2013,56121,C_56121110,Théâtre de Lorient - Le Studio,Place de l'Hôtel de Ville,56100,Lorient,5,salle de spectacle multifonctions,Oui,Oui,Oui,"6 loges à l'étage avec sanitaires, douches, miroir. Accès en fond de scène. ",1 régie mobile en fond de salle,www.letheatredelorient.fr,Commune,Commune,nc,150,2192 pour l'ensemble du bâtiment,"47,75","-3,36886",Salle et scène accessibles aux personnes à mobilité réduite,"6,90m"
2013,56124,C_56124100,Centre culturel le Pass'Temps,Rue Sainte-Anne,56140,Malestroit,1,salle non équipée,Non,Non,Non,,,www.malestroit.fr,Commune,Commune,190,33,nc,"47,81","-2,38291",Salle accessible aux personnes à mobilité réduite,"2,50m"
2013,56124,C_56124101,Salle des fêtes,Place Jacques Bonsergent,56140,Malestroit,4,salle de spectacle multifonctions,Non,Non,Oui,,,www.malestroit.fr,Commune,Commune,890,300,900,"47,81","-2,37841",Salle accessible aux personnes à mobilité réduite,"3,25m"
2013,56125,C_56125100,Salle multifonctions,Rue Saint-Néo,56300,Malguénac,1,salle non équipée,Non,Non,Oui,,,www.malguenac.fr,Commune,Commune,600,200,1056 pour l'ensemble du bâtiment,"48,08","-3,04928",Salle accessible aux personnes à mobilité réduite,"7,10m"
2013,56125,C_56125101,Salle polyvalente,Rue du Château d'eau,56300,Malguénac,2,salle peu équipée,Non,Non,Oui,,,www.malguenac.fr,Commune,Commune,600,200,nc,"48,08","-3,05265",Salle accessible aux personnes à mobilité réduite,"2,65m"
2013,56126,C_56126100,Salle polyvalente,Rue de la Gare,56130,Marzan,2,salle peu équipée,Non,Non,Oui,,,,Commune,Commune,395,216,652 pour l'ensemble du bâtiment,"47,54","-2,32432",Salle accessible aux personnes à mobilité réduite,"2,70m"
2013,56127,C_56127100,Centre culturel Morono?,Allée de Newmarket,56430,Mauron,6,salle de spectacle,Oui,Oui,Oui,"1 loge avec sanitaire, accès par le fond de scène",1 régie suspendue,,Commune,Commune,1200,738,937,"48,09","-2,28425",Salle accessible aux personnes à mobilité réduite,"6,00m"
2013,56128,C_56128100,Salle polyvalente,Rue St Ravalain,56310,Melrand,2,salle peu équipée,Non,Non,Oui,,,www.melrand.fr,Commune,Commune,300,300,300,"47,98","-3,10002",Salle accessible aux personnes à mobilité réduite,"2,55m"
2013,56129,C_56129100,Foyer municipal,Le Tertre Merot,56490,Ménéac,5,salle de spectacle multifonctions,Non,Non,Oui,2 loges à cour et à jardin ,,,Commune,Commune,280,230,280,"48,14","-2,45287",Salle accessible aux personnes à mobilité réduite,"2,60m"
2013,56130,C_56130100,Salle Xavier Grall,25 rue de la Mairie,56700,Merlevenez,1,salle non équipée,Non,Non,Oui,,,,Commune,Commune,380,350,nc,"47,74","-3,23036",Salle accessible aux personnes à mobilité réduite,"3,40m"
2013,56131,C_56131100,Salle communale,36 rue Joseph Le Gallo,56320,Meslan,3,salle peu équipée,Non,Non,Oui,,,www.meslan.fr,Commune,Commune,186,140,290,"47,99","-3,43096",Salle accessible aux personnes à mobilité réduite,"2,40m"
2013,56131,C_56131101,Salle des fêtes,Rue de la Fontaine,56320,Meslan,4,salle de spectacle multifonctions,Non,Non,Oui,1 loge côté cour avec lavabo et miroir,,www.meslan.fr,Commune,Commune,190,190,363,"47,99","-3,43399",Salle et scène accessibles aux personnes à mobilité réduite,"2,45m"
2013,56132,C_56132100,Le Triskell,Rue du Stade,56890,Meucon,1,salle non équipée,Non,Non,Non,,,www.meucon.fr,Commune,Commune,1000,400,nc,"47,71698","-2,76408",Salle accessible aux personnes à mobilité réduite,"3,00m"
2013,56133,C_56133100,Salle polyvalente,Le Bourg,56140,Missiriac,5,salle de spectacle multifonctions,Non,Non,Oui,1 loge avec sanitaires,,,Commune,Commune,263,200,nc,"47,84","-2,35078",Salle accessible aux personnes à mobilité réduite,"3,60m"
2013,56134,C_56134100,Salle des fêtes,Le Bourg,56490,Mohon,1,salle non équipée,Non,Non,Oui,,,www.mohon.fr,Commune,Commune,276,276,562 pour l'ensemble du bâtiment,"48,05","-2,52494",Salle accessible aux personnes à mobilité réduite,"6,00m"
2013,56135,C_56135100,Salle polyvalente,Rue Saint-Pierre,56230,Molac,3,salle peu équipée,Non,Non,Oui,1 loge possible dans une salle côté jardin,,,Commune,Commune,260,260,260,"47,73","-2,4375",Salle accessible aux personnes à mobilité réduite,"2,45m"
2013,56136,C_56136100,Salle du Chaperon Rouge,Rue du chaperon rouge,56380,Monteneuf,3,salle peu équipée,Non,Non,Oui,2 loges,,www.site-officiel-de-monteneuf.fr,Commune,Commune,350,300,385,"47,88","-2,2884",Salle accessible aux personnes à mobilité réduite,"3,20m"
2013,56137,C_56137100,Salle des fêtes,Rue des Vénètes,56250,Monterblanc,3,salle peu équipée,Non,Non,Oui,"2 petits locaux à jardin, avec WC, pourraient servir de loge individuelle. ",,www.monterblanc.fr,Commune,Commune,500,300,nc,"47,74","-2,67876",Salle accessible aux personnes à mobilité réduite.,"2,75m"
2013,56138,C_56138100,Salle polyvalente,2 rue de la Mairie,56800,Monterrein,2,salle peu équipée,Non,Non,Oui,1 vestiaire avec point d'eau en fond de salle,,,Commune,Commune,180,160,192,"47,88","-2,35871",Salle accessible aux personnes à mobilité réduite,"3,30m"
2013,56139,C_56139100,"Salle des fêtes ""Entre nous""",2 rue des forges,56800,Montertelot,1,salle non équipée,Non,Non,Oui,,,,Commune,Commune,100,100,107,"47,88","-2,422425",Salle accessible aux personnes à mobilité réduite,"2,30m"
2013,56140,C_56140100,Salle Camélia,Rue de la Fontaine,56500,Moréac,2,salle peu équipée,Non,Non,Oui,2 loges à cour et jardin. Pas de sanitaires,,www.moreac.fr,Commune,Commune,560,nc,721,"47,92","-2,82057",Salle accessible aux personnes à mobilité réduite,"3,40m"
2013,56140,C_56140101,Salle Lila,Rue de la Fontaine,56501,Moréac,1,salle non équipée,Non,Non,Oui,,,www.moreac.fr,Commune,Commune,160,120,210,"47,92","-2,82057",Salle accessible aux personnes à mobilité réduite,"3,10m"
2013,56141,C_56141100,Salle polyvalente,Le Resto,56500,Moustoir'Ac,2,salle peu équipée,Non,Non,Oui,,,,Commune,Commune,nc,nc,nc,"47,84","-2,85344",Salle accessible aux personnes à mobilité réduite,"2,40m"
2013,56142,C_56142100,Salle Communale,Rue de la Mairie,56500,Evellys,2,salle peu équipée,Non,Non,Oui,,,www.moustoir-remungol.fr,Commune,Commune,150,200,270 pour l'ensemble du bâtiment,48,"-2,90189",Salle accessible aux personnes à mobilité réduite,"3,60m"
2013,56143,C_56143100,Le Vieux-Couvent,Place du Vieux Couvent,56190,Muzillac,6,salle de spectacle,Oui,Oui,Oui,"1 loge avec douche, 2 lavabos, sanitaires. Elle dispose d'un accès direct à la scène.",1 régie vitrée en fond de salle. Possibilité de l'installer en salle.,www.muzillac.fr,Commune,Commune,non,460,465,"47,55","-2,48019",Salle accessible aux personnes à mobilité réduite,"5,55m"
2013,56144,C_56144100,Foyer Communale,4 rue de la paix,56500,Evellys,3,salle peu équipée,Non,Non,Oui,2 alcôves à cour et jardin,,www.naizin.fr,Commune,Commune,nc,nc,392,"47,9","-2,83228",Salle accessible aux personnes à mobilité réduite,"3,86m"
2013,56145,C_56145100,Salle de Néant s/ Yvel,,56430,Néant-sur-Yvel,1,salle non équipée,Non,Non,,,,,Commune,Commune,nc,nc,nc,"48,01","-2,3279625",,
2013,56146,C_56146100,Salle Emeraude,Rue de la Mairie,56300,Neulliac,2,salle peu équipée,Non,Non,Oui,,,,Commune,Commune,250,200,nc,"48,13","-2,98372",Salle accessible aux personnes à mobilité réduite,"3,45m"
2013,56147,C_56147100,Le Forum,5 espace Lourmois,56130,Nivillac,6,salle de spectacle,Oui,Oui,Oui,1 loge collective avec 2 douches. Capacité: 19 personnes. Accès direct sur extérieur,1 régie en fond de salle. Possibilité de l'installer en salle sans condamner de siège.,www.forumnivillac.fr,Commune,Commune,non,403,403,"47,54","-2,28253","Salle, scène et régie accessibles aux personnes à mobilité réduite","5,70m"
2013,56147,C_56147101,Salle polyvalente du Forum,5 espace Lourmois,56130,Nivillac,2,salle peu équipée,Oui,Oui,Oui,,,www.forumnivillac.fr,Commune,Commune,420,420,437,"47,54","-2,28253",Salle et scène accessibles aux personnes à mobilité réduite,"3,60m"
2013,56148,C_56148100,Espace Les Grands Chênes,Place de l'Eglise,56690,Nostang,1,salle non équipée,Non,Non,Oui,,,,Commune,Commune,nc,nc,nc,"47,75","-3,18955",Salle accessible aux personnes à mobilité réduite,"1,95m"
2013,56149,C_56149100,Complexe sportif et polyvalent de la Michochêne,Rue du Stade,56190,Noyal-Muzillac,2,salle peu équipée,Non,Non,Oui,,,www.noyal-muzillac.fr,Commune,Commune,nc,nc,"235 personnes pour la salle, 1235 pour l'ensemble du bâtiment","47,59","-2,45885",Salle accessible aux personnes à mobilité réduite,"2,50m"
2013,56151,C_56151100,Salle Lancelot,Rue du Stade,56920,Noyal-Pontivy,3,salle peu équipée,Non,Non,Oui,,,www.noyal-pontivy.fr,Commune,Commune,660,400,nc,"48,07","-2,88721",Salle accessible aux personnes à mobilité réduite,"3,60m"
2013,56152,C_56152100,Salle Arletty,Rue des Remparts,56360,Le Palais,6,salle de spectacle,Non,Oui,Oui,2 loges pour 6 personnes avec sanitaires communs,1 régie vitrée dont une partie est installée en salle ,www.ccbi.fr,CC de Belle-Ile,CC de Belle-Ile,874,322,nc,"47,34","-3,15374429",Salle accessible aux personnes à mobilité réduite,"5,10m"
2013,56153,C_56153100,Salle corail,Rue de l'armoricaine,56130,Péaule,2,salle peu équipée,Non,Non,Oui,,,www.peaule.fr,Commune,Commune,350,140,360,"47,59","-2,3514",Salle accessible aux personnes à mobilité réduite,"2,30m"
2013,56154,C_56154100,Salle polyvalente,Rue de la Cité des Fleurs,56220,Peillac,4,salle de spectacle multifonctions,Non,Non,Oui,1 salle côté cuisines qui sert de loge avec un miroir et des douches en face. ,"1 local régie côté podium, à jardin. ",www.peillac.fr,Commune,Commune,276,276,286,"47,71","-2,21965",Salle accessible aux personnes à mobilité réduite,"3,00m"
2013,56155,C_56155100,Complexe Petit-Breton,Allée des sports,56760,Pénestin,4,salle de spectacle multifonctions,Non,Oui,Oui,,,www.mairie-penestin.com,Commune,Commune,391,300,740 pour l'ensemble du bâtiment,"47,48","-2,48081",Salle accessible aux personnes à mobilité réduite,"3,00m"
2013,56156,C_56156100,Salle polyvalente,Rue des Rainettes,56160,Persquen,3,salle peu équipée,Non,Non,Oui,,,,Commune,Commune,250,200,nc,"48,03","-3,19693",Salle accessible aux personnes à mobilité réduite,"3,70m"
2013,56157,C_56157100,Salle Ty An Holl,Kerembourg,56420,Plaudren,2,salle peu équipée,Non,Non,Oui,,,www.plaudren.fr,Commune,Commune,558,400,558,"47,78","-2,69097",Salle accessible aux personnes à mobilité réduite,"5,00m"
2013,56158,C_56158100,Salle polyvalente,Rue du stade,56890,Plescop,3,salle peu équipée,Non,Non,Oui,,"1 régie à cour, hublot donnant sur la scène",www.plescop.fr,Commune,Commune,640,480,3000 pour l'ensemble du bâtiment,"47,7","-2,8019807",Salle accessible aux personnes à mobilité réduite,"2,55m"
2013,56159,C_56159100,Salle multifonctions,,56140,Pleucadeuc,6,salle de spectacle,Non,Non,Oui,3 loges dont 2 avec WC,Oui,www.pleucadeuc.fr,Commune,Commune,1050,400,1130,"47,76","-2,3740556",Salle et scène accessibles aux personnes à mobilité réduite,"3,75m"
2013,56160,C_56160100,Salle polyvalente,Rue Anne de Bretagne,56120,Pleugriffet,3,salle peu équipée,Non,Non,Oui,,,www.pleugriffet.net,Commune,Commune,400,300,nc,"47,99","-2,68484",Salle accessible aux personnes à mobilité réduite,"2,50m"
2013,56162,C_56162100,Centre Amzer Nevez,2 chemin du Conservatoire,56270,Ploemeur,3,salle peu équipée,Oui,Oui,Oui,,,www.amzernevez.org,Commune,Bail emphytéotique avec l'association Amzer Nevez,400,200,680 pour l'ensemble du bâtiment,"47,73","-3,33274",Salle accessible aux personnes à mobilité réduite,"3,50m"
2013,56162,C_56162101,Centre culturel Océanis,Boulevard François Mitterrand,56270,Ploemeur,6,salle de spectacle,Oui,Oui,Oui,"Les loges se situent côté jardin. 1 loge commune et 2 individuelles au rez-de-chaussée avec 2 WC, 2 loges communes à l'étage avec 1 WC et 2 douches",1 régie en salle,www.ploemeur.com,Commune,Commune,1500,1000,1995 pour l'ensemble du bâtiment,"47,73","-3,42462",Salle et scène accessibles aux personnes à mobilité réduite,"7,00m"
2013,56163,C_56163100,Salle polyvalente du Bourg,Place Coët Noz,56160,Ploërdut,2,salle peu équipée,Non,Non,Oui,,,www.ploerdut.fr,Commune,Commune,350,250,nc,"48,09","-3,28723",Salle inaccessible aux personnes à mobilité réduite,"3,25m"
2013,56164,C_56164100,Le Spi,Rue des Fontaines,56880,Ploeren,2,salle peu équipée,Non,Non,Oui,,,www.mairie-ploeren.com,Commune,Commune,1041,nc,nc,"47,65","-2,86549",Salle et scène accessibles aux personnes à mobilité réduite,"4,50m"
2013,56164,C_56164101,Le Triskell,Rue des deux moulins,56880,Ploeren,2,salle peu équipée,Non,Non,Oui,,,www.mairie-ploeren.com,Commune,Commune,382,nc,nc,"47,65634","-2,86636",Salle accessible aux personnes à mobilité réduite,"3,10m"
2013,56165,C_56165100,Chapelle Bleue,Rue du Val,56800,Ploërmel,6,salle de spectacle,Oui,Oui,Oui,"1 grande loge, jusqu'à 8 personnes, avec sanitaire. Pas d'accès direct à la scène",1 régie en fond de salle,,Commune,Ploërmel Communauté,200,156,205,"47,93","-2,39908",Salle et scène accessibles aux personnes à mobilité réduite,"5,25m"
2013,56165,C_56165101,Salle des fêtes,5 rue Général Giraud,56800,Ploërmel,4,salle de spectacle multifonctions,Non,Non,Oui,3 loges avec accès par le fond de scène.,,,Commune,Commune,900,600,1209 pour l'ensemble du bâtiment,"47,93","-2,39619",Salle et scène accessibles aux personnes à mobilité réduite,"4,00m"
2013,56166,C_56166100,Salle au sein du Domaine de Manéhouarn,Rue de Manehouarn,56240,Plouay,1,salle non équipée,Non,Non,Non,,,www.cc-plouay.fr,Commune,Sagemore,200,150,nc,"47,92","-3,34657",Salle accessible aux personnes à mobilité réduite,"2,75m"
2013,56166,C_56166101,Salle des fêtes de Bécherel,Rue Bécherel,56240,Plouay,4,salle de spectacle multifonctions,Non,Non,Oui,loges,,www.cc-plouay.fr,Commune,Commune,1000,600,nc,"47,92","-3,33285",Salle accessible aux personnes à mobilité réduite,"4,50m"
2013,56168,C_56168100,Salle de Plouharnel,,56340,Plouharnel,1,salle non équipée,Non,Non,,,,,Commune,Commune,350,300,nc,"47,6","-3,1125536",,
2013,56169,C_56169100,Espace Jean-Pierre Calloc'h,Rue Maurice Thomas,56680,Plouhinec,5,salle de spectacle multifonctions,Non,Non,Oui,1 loge,,www.plouhinec.com,Commune,Commune,670,470,nc,"47,7","-3,2509",Salle accessible aux personnes à mobilité réduite,"4,00m"
2013,56170,C_56170100,Salle polyvalente,15 rue du Midi,56770,Plouray,1,salle non équipée,Non,Non,Oui,,,,Commune,Commune,220,180,nc,"48,14","-3,38726",Salle accessible aux personnes à mobilité réduite,"1,70m"
2013,56171,C_56171100,Salle Françoise d'Amboise,2 rue des Taillis,56220,Pluherlin,4,salle de spectacle multifonctions,Non,Non,Oui,1 loge possible dans un local avec accès direct en fond de scène. Elle sert actuellement aux jeunes de la commune.,,,Commune,Commune,non,242,252,"47,7","-2,36282",Salle accessible aux personnes à mobilité réduite,"4,35m"
2013,56171,C_56171101,Salle polyvalente,Rue Saint-Hernin,56220,Pluherlin,0,salle non équipée,Non,Non,Non,,,,Commune,Commune,225,150,235,"47,7","-2,36163",Salle accessible aux personnes à mobilité réduite,"4,00m"
2013,56172,C_56172100,Complexe de la Madeleine,Route de Josselin,56420,Plumelec,2,salle peu équipée,Non,Non,Oui,,,www.plumelec.org,Commune,Commune,600,500,nc,"47,84","-2,63868",Salle accessible aux personnes à mobilité réduite,"6,90m"
2013,56173,C_56173100,Espace Droséra,Rue de la Paix,56310,Pluméliau,3,salle peu équipée,Non,Non,Oui,"1 loge avec sanitaire, accès à  la scène par jardin",,www.plumeliau.net,Commune,Commune,680,400,682 pour l'ensemble du bâtiment,"47,96","-2,9774",Salle accessible aux personnes à mobilité réduite,"4,00m"
2013,56174,C_56174100,Salle polyvalente,6 bis rue de la Mairie,56500,Plumelin,1,salle non équipée,Non,Non,Oui,,,www.mairie-plumelin.fr,Commune,Commune,230,200,nc,"47,86","-2,88758",Salle accessible aux personnes à mobilité réduite,"4,55m"
2013,56175,C_56175100,Salle polyvalente,Rue Joseph Evenas,56400,Plumergat,1,salle non équipée,Non,Oui,Non,,,www.plumergat.fr,Commune,Commune,342,nc,442,"47,74","-2,92197",Salle et scène inaccessibles aux personnes à mobilité réduite,"3,00m"
2013,56175,C_56175101,Salle polyvalente de Mériadec,1 rue Pafait Pobéguin,56400,Plumergat,1,salle non équipée,Non,Non,Non,,,www.plumergat.fr,Commune,Commune,200,nc,280,"47,7","-2,89783",Salle accessible aux personnes à mobilité réduite,"3,00m"
2013,56176,C_56176100,Salle des fêtes,7 place Jollivet,56400,Pluneret,3,salle peu équipée,Non,Non,Oui,,,www.pluneret.fr,Commune,Commune,nc,150,nc,"47,68","-2,95806",Salle accessible aux personnes à mobilité réduite,"3,00m"
2013,56177,C_56177100,Foyer de la Madeleine,Rue Saint-Georges,56330,Pluvigner,3,salle peu équipée,Non,Non,Oui,1 petite loge au sous-sol avec lavabo et WC,,www.pluvigner.fr,Commune,Commune,450,200,446,"47,77","-3,01653",Salle accessible aux personnes à mobilité réduite,"2,85m"
2013,56177,C_56177101,Salle MJ Le Borgne,Rue Maréchal Leclerc,56330,Pluvigner,2,salle peu équipée,Non,Non,Oui,,,www.pluvigner.fr,Commune,Commune,1000,1000,1176,"47,78","-3,01318",Salle accessible aux personnes à mobilité réduite,"7,00m"
2013,56178,C_56178100,Auditorium Jean Sébastien Bach au sein du conservatoire de Pontivy,5 rue Kristen Noguès,56300,Pontivy,5,salle de spectacle multifonctions,Non,Non,Oui,Les salles de cours servent de loges.,1 régie vitrée sur scène côté cour,www.pontivy-communauté.fr,Pontivy Communauté,Pontivy Communauté,non,120,nc,"48,08","-2,96925",Salle et scène accessibles aux personnes à mobilité réduite,"4,15m"
2013,56178,C_56178101,Halles Safire,Avenue des Cités Unies,56300,Pontivy,2,salle peu équipée,Non,Oui,Oui,,,www.pontivy-communauté.fr,Pontivy Communauté,Pontivy Communauté,4000,650,nc,"48,05","-2,95561",Salle accessible aux personnes à mobilité réduite,"6,00m"
2013,56178,C_56178102,Palais des Congrès - Salle de spectacle,Place des Ducs de Rohan,56300,Pontivy,6,salle de spectacle,Non,Oui,Oui,"3 petites loges individuelles avec lavabo, miroir, penderie et 2 douches et 2 WC en commun. ","1 régie vitrée en fond de salle, possibilité d'ouvrir les vitres. Distance régie - bord plateau: 20m. Pour régie en salle, supprimer environ 16 places.",www.pontivy.fr,Commune,Commune,non,680,237 pour l'ensemble du bâtiment,"48,07","-2,96451",Salle accessible aux personnes à mobilité réduite,"9,80m"
2013,56178,C_56178103,Palais des Congrès - Salle Pondi,Place des Ducs de Rohan,56300,Pontivy,3,salle peu équipée,Non,Oui,Oui,,,www.pontivy.fr,Commune,Commune,1000,600,nc,"48,07","-2,96451",Salle accessible aux personnes à mobilité réduite,"3,00m"
2013,56178,C_56178104,Théâtre des Halles,Rue de Lourmel,56300,Pontivy,6,salle de spectacle,Non,Non,Oui,"1 loge avec miroir et lavabo, peut se séparer en deux espaces",1 régie en fond de salle,www.pontivy.fr,Commune,Commune,non,180,nc,"48,07","-2,96308",Salle accessible aux personnes à mobilité réduite,"4,60m"
2013,56179,C_56179100,Salle polyvalente,Rue Docteur Rialland,56620,Pont-Scorff,2,salle peu équipée,Non,Non,Oui,,,www.pontscorff.com,Commune,Commune,nc,250,nc,"47,84","-3,40431",Salle accessible aux personnes à mobilité réduite,"2,90m"
2013,56179,C_56179101,Théâtre Le Strapontin,Rue Docteur Rialland,56620,Pont-Scorff,6,salle de spectacle,Oui,Oui,Oui,"1 loge sous la scène avec canapé, table à repasser, miroirs","1 régie derrière le dernier rang de spectateurs ou en salle, au dernier rang, condamnant 12 places",www.pontscorff.com,Commune,"Association-Ciné Spectacles prioritairement, et la commune en fonction de l'association",non,169,nc,"47,84","-3,4025892",Salle et scène accessibles aux personnes à mobilité réduite,"5,25m"
2013,56181,C_56181100,Auditorium de la Médiathèque,57 Grande Rue,56290,Port-Louis,1,salle non équipée,Non,Non,Non,,,www.ville-portlouis.fr,Commune,Commune,nc,nc,nc,"47,71","-3,36216",Salle accessible aux personnes à mobilité réduite,"3,00m"
2013,56181,C_56181101,La Grande Poudrière,Promenade Henri Buffet,56290,Port-Louis,1,salle non équipée,Non,Non,Non,,,www.ville-portlouis.fr,Commune,Commune,nc,nc,50,"47,71","-3,35775",Salle accessible aux personnes à mobilité réduite,"6,15m"
2013,56181,C_56181102,Salle communale Locmalo,Place de Penerun,56290,Port-Louis,0,salle non équipée,Non,Non,Non,,,www.ville-portlouis.fr,Commune,Commune,nc,nc,nc,"47,70839","-3,356342",Salle accessible aux personnes à mobilité réduite,"4,00m"
2013,56181,C_56181103,Salle des Remparts,Promenade Henri Buffet,56290,Port-Louis,2,salle peu équipée,Non,Non,Oui,1 coin loge avec WC,,www.ville-portlouis.fr,Commune,Commune,nc,nc,nc,"47,71","-3,35775",Salle accessible aux personnes à mobilité réduite,"3,00m"
2013,56182,C_56182100,Salle multifonctionnelle,Rue de Bel Air,56320,Priziac,4,salle de spectacle multifonctions,Non,Non,Oui,1 loge accès à la scène côté jardin avec lavabo et WC,,www.priziac.com,Commune,Commune,300,300,nc,"48,06","-3,41173",Salle et scène accessibles aux personnes à mobilité réduite,"3,30m"
2013,56183,C_56183100,Salle polyvalente,11 rue du Houx,56910,Carentoir,3,salle peu équipée,Non,Non,Oui,,,www.mairie-quelneuc.fr,Commune,Commune,nc,nc,nc,"47,82","-2,0694",Salle accessible aux personnes à mobilité réduite,"3,65m"
2013,56184,C_56184100,Centre Alan Meur,Place Général de Gaulle,56230,Questembert,4,salle de spectacle multifonctions,Non,Non,Oui," 3 salles derrière la scène, avec toilettes et entrée indépendantes peuvent servir de loges",,www.questembert-notre-cite.org,Commune,Commune,120,100,425 pour l'ensemble du bâtiment,"47,66","-2,45048",Salle accessible aux personnes à mobilité réduite,"2,50m"
2013,56184,C_56184101,L'Asphodèle,21 rue du Pont à Tan,56230,Questembert,6,salle de spectacle,Oui,Oui,Oui,3 loges avec lavabo et sanitaires,1 régie en fond de salle,www.lasphodele.fr,CC Pays de Questembert,Citedia (Délégation de Service Public),1000,384,"384 pour la salle de spectacle, 1034 pour l'ensemble du bâtiment","47,66","-2,4599",Salle accessible aux personnes à mobilité réduite,"6,00m"
2013,56185,C_56185100,Les Arcs,9 rue de la Gare,56530,Quéven,6,salle de spectacle,Oui,Oui,Oui,"1 loge en fond de scène avec 2 petites salles, WC et douche, 1 loge collective, scène côté jardin, sans WC ni douche",1 régie installée au pied du gradin,www.queven.com,Commune,Commune,1600,880,nc,"47,79","-3,41511",Salle accessible aux personnes à mobilité réduite,"4,75m"
2013,56186,C_56186100,Espace Louison Bobet,Place Beg-er-vil,56170,Quiberon,6,salle de spectacle,Non,Oui,Oui,"1 loge avec WC, accès à la scène par jardin",1 local exiguë à jardin avec une vitre,www.quiberon.com,Commune,Commune,nc,550,2160 pour l'ensemble du bâtiment,"47,477052","-3,110885",Salle accessible aux personnes à mobilité réduite,"3,60m"
2013,56186,C_56186101,Salle des banquets,Place Beg-er-vil,56170,Quiberon,3,salle peu équipée,Non,Oui,Oui,"1 loge avec WC, accès par un couloir",,www.quiberon.com,Commune,Commune,nc,nc,2160 pour l'ensemble du bâtiment,,"-3,1358",Salle accessible aux personnes à mobilité réduite,"3,45m"
2013,56187,C_56187100,Salle des fêtes,Rue de Bas,56800,Val d'Oust,0,salle non équipée,Non,Non,Non,,,,Commune,Commune,360,120,nc,"47,52","-2,76721",Salle accessible aux personnes à mobilité réduite,"3,80m"
2013,56188,C_56188100,Salle polyvalente,Rue du Stade,56310,Quistinic,1,salle non équipée,Non,Non,Oui,,,www.cc-plouay.fr,Commune,Commune,200,180,nc,"47,91","-3,14077",Salle accessible aux personnes à mobilité réduite,"3,00m"
2013,56189,C_56189100,Salle communale Saint-Fiacre,12 rue du Stade,56500,Radenac,2,salle peu équipée,Non,Non,Oui,,,www.radenac.fr,Commune,Commune,480,300,350,"47,96","-2,71322",Salle accessible aux personnes à mobilité réduite,"3,20m"
2013,56190,C_56190100,Salle multifonctions,Rue de la Piscine,56500,Réguiny,2,salle peu équipée,Non,Non,Oui,,,www.reguiny.com,Commune,Commune,1000,750,nc,"47,97","-2,73805",Salle accessible aux personnes à mobilité réduite,"3,20m"
2013,56191,C_56191100,Salle polyvalente,Impasse de l'étang,56140,Réminiac,3,salle peu équipée,Non,Non,Oui,2 alcôves de part et d'autre de la scène,,,Commune,Commune,nc,nc,292,"47,86","-2,23682",Salle accessible aux personnes à mobilité réduite,"3,10m"
2013,56192,C_56192100,Espace de l'Evel,6 place de la Mairie,56500,Evellys,3,salle peu équipée,Non,Non,Oui,,,www.remungol.fr,Commune,Commune,800,400,nc,"47,93","-2,89845",Salle accessible aux personnes à mobilité réduite,"3,50m"
2013,56193,C_56193100,Salle audiovisuelle ,Rue de la Pradène,56670,Riantec,4,salle de spectacle multifonctions,Non,Non,Oui,,1 régie vitrée en fond de salle,www.riantec.com,Commune,Commune,non,140,310 pour l'ensemble du bâtiment,"47,71","-3,31159",Salle accessible aux personnes à mobilité réduite,"2,50m"
2013,56193,C_56193101,Salle polyvalente Henri Queffélec,Rue Joliot Curie,56670,Riantec,1,salle non équipée,Non,Non,Oui,,,www.riantec.com,Commune,Commune,435,nc,445 pour l'ensemble du bâtiment,"47,71","-3,31159",Salle accessible aux personnes à mobilité réduite,"3,20m"
2013,56193,C_56193102,Salon d'honneur du Château de Kerdurand,Rue de Kerdurand,56670,Riantec,0,salle non équipée,Non,Non,Non,,,www.riantec.com,Commune,Commune,nc,70,nc,"47,72","-3,31957",Salle accessible aux personnes à mobilité réduite,"2,90m"
2013,56195,C_56195100,Salle Richelieu,Chemin du Pâtis,56130,La Roche-Bernard,0,salle non équipée,Non,Non,Non,,,www.laroche-bernard.fr/,Commune,Commune,130,100,245,"47,52","-2,30539",Salle accessible aux personnes à mobilité réduite,"2,30m"
2013,56196,C_56196100,Salle polyvalente,30 Place Saint-Michel,56230,Rochefort-en-Terre,1,salle non équipée,Non,Non,Non,,,,Commune,Commune,115,110,125,"47,7","-2,33295",Salle accessible aux personnes à mobilité réduite,"3,00m"
2013,56197,C_56197100,Salle polyvalente du Val Chevrier,Rue du Val Chevrier,56460,Val d'Oust,2,salle peu équipée,Non,Non,Oui,,,www.ville-roc-saint-andre.fr,Commune,Commune,385,200,492,"47,66","-2,76298",Salle accessible aux personnes à mobilité réduite,"3,20m"
2013,56198,C_56198100,La Belle Etoile,Rue de la Belle Etoile,56580,Rohan,6,salle de spectacle,Non,Non,Oui,"1 loge avec miroir, lavabo et WC, accès fond de scène",1 régie vitrée en milieu de salle côté cour,www.rohan.fr,Commune,Commune,756,628,nc,"48,07","-2,75173",Salle et scène accessibles aux personnes à mobilité réduite,"5,40m"
2013,56199,C_56199100,Salle polyvalente,Rue de Guiscriff,56110,Roudouallec,4,salle de spectacle multifonctions,Non,Non,Oui,,,,Commune,Commune,274,160,284,"48,13","-3,71737",Salle accessible aux personnes à mobilité réduite,"2,90m"
2013,56201,C_56201100,Salle polyvalente,Rue Cadéron,56110,Le Saint,2,salle peu équipée,Non,Non,Oui,,,,Commune,Commune,250,200,630,"48,09","-3,56082",Salle accessible aux personnes à mobilité réduite,"3,40m"
2013,56202,C_56202100,Complexe des Nouettes,Route de la Chapelle-Caro,56140,Saint-Abraham,2,salle peu équipée,Non,Oui,Oui,,,,Syndicat sportif intercommunal entre La Chapelle-Caro et Saint-Abraham,Gestion par la Mairie de Saint-Abraham,355,300,629 pour l'ensemble du bâtiment,"47,86","-2,41252",Salle accessible aux personnes à mobilité réduite,"4,50m"
2013,56203,C_56203100,Salle René Anès,Rue de la Mairie,56480,Saint-Aignan,1,salle non équipée,Non,Non,Oui,,,www.saint-aignan56.fr,Commune,Commune,150,150,180,"48,18","-3,0153",Salle accessible aux personnes à mobilité réduite,"2,45m"
2013,56204,C_56204100,Salle polyvalente,Rue de la Claie,56500,Saint-Allouestre,5,salle de spectacle multifonctions,Non,Non,Oui,"1 local chaises avec accès direct sur scène côté cour, accès extérieur et WC, qui sert de loge",1 régie vitrée en fond de salle,www.stallouestre.fr,Commune,Commune,nc,nc,650,"47,91","-2,72396",Salle accessible aux personnes à mobilité réduite,"3,10m"
2013,56206,C_56206100,Centre culturel Le Dôme,Rue des Droits de l'Homme,56890,Saint-Avé,6,salle de spectacle,Oui,Oui,Oui,"3 loges dont 1 collective et 2 individuelles, avec WC et douche",1 régie en salle,www.saint-ave.fr,Commune,Commune,876,404,nc,"47,69","-2,73923",Salle et scène accessibles aux personnes à mobilité réduite,"5,60m"
2013,56206,C_56206101,L'Echonova,1 rue Léon Griffon,56890,Saint-Avé,6,salle de spectacle,Oui,Oui,Oui,"2 loges avec douche, très bien équipées",1 régie en fond de salle,www.lechonova.com,Vannes Agglo,R.E.M.A.,600,nc,700,"47,67302","-2,740557",Salle et scène accessibles aux personnes à mobilité réduite,"5,50m"
2013,56207,C_56207100,Salle polyvalente,9 rue de la Mairie,56150,Saint-Barthélemy,2,salle peu équipée,Non,Non,Oui,,,www.saint-barthelemy56.net,Commune,Commune,320,200,nc,"47,93","-3,04338",Salle accessible aux personnes à mobilité réduite,"2,05m"
2013,56208,C_56208100,Salle socioculturelle,5 rue de la Ville aux Oies,56430,Saint-Brieuc de Mauron,3,salle peu équipée,Non,Non,Oui,,,,Commune,Commune,150,nc,264 pour l'ensemble du bâtiment,"48,09","-2,3639",Salle accessible aux personnes à mobilité réduite,"4,60m"
2013,56209,C_56209100,Salle des fêtes,Le Bourg,56480,Sainte-Brigitte,0,salle non équipée,Non,Non,Non,,,www.sainte-brigitte.fr,Commune,Commune,240,90,nc,"48,16","-3,12871",Salle accessible aux personnes à mobilité réduite,"2,90m"
2013,56211,C_56211100,Salle polyvalente,9 route de Redon,56140,Saint-Congard,3,salle peu équipée,Non,Non,Oui,"2 loges avec lavabo, dont 1 avec accès handicapé depuis l'extérieur",,,Commune,Commune,312,250,322,"47,77","-2,31785",Salle et scène accessibles aux personnes à mobilité réduite,"3,85m"
2013,56212,C_56212100,Salle polyvalente,Place de l'Eglise,56130,Saint-Dolay,1,salle non équipée,Non,Non,Oui,,,,Commune,Commune,335,300,345,"47,54","-2,1533",Salle accessible aux personnes à mobilité réduite,"3,30m"
2013,56214,C_56214100,Salle Kercaradec,Route de Kercaradec,56730,Saint-Gildas-de-Rhuys,2,salle peu équipée,Non,Non,Oui,,,www.saint-gildas-de-rhuys.fr/,Commune,Commune,400,300,490,"47,52","-2,76944",Salle accessible aux personnes à mobilité réduite,"3,10m"
2013,56215,C_56215100,Salle Michel Kerfanto,14 rue des Deux Ponts,56920,Saint-Gonnéry,3,salle peu équipée,Non,Non,Oui,"2 réserves, 1 de chaque côté de la scène, utilisées comme local chaises à cour et cuisine à jardin, peuvent servir de loges.",,www.stgonnery.fr,Commune,Commune,nc,nc,380,"48,12","-2,82038",Salle accessible aux personnes à mobilité réduite,"3,20m"
2013,56216,C_56216100,Salle socioculturelle,Rue de la Croix des Landes,56350,Saint-Gorgon,2,salle peu équipée,Non,Non,Oui,,,,Commune,Commune,nc,nc,466 pour l'ensemble du bâtiment,"47,65","-2,23316",Salle accessible aux personnes à mobilité réduite,"4,00m"
2013,56219,C_56219100,Maison des associations,Le Bourg,56460,Saint-Guyomard,3,salle peu équipée,Non,Non,Oui,,,,Commune,Commune,nc,120,nc,"47,78","-2,511361",Salle accessible aux personnes à mobilité réduite,"3,25m"
2013,56220,C_56220100,Salle Beg Er Lann,Rue de Plouhinec,56700,Sainte-Hélène,3,salle peu équipée,Non,Non,Oui,,,,Commune,Commune,370,320,377,"47,72","-3,20936",Salle accessible aux personnes à mobilité réduite,"3,70m"
2013,56221,C_56221100,Salle polyvalente,Rue du Stade,56220,Saint-Jacut-les-Pins,5,salle de spectacle multifonctions,Non,Non,Oui,1 loge sous le niveau de la scène avec WC et lavabo,,www.st-jacut-les-pins.fr,Commune,Commune,nc,150,500,"47,69","-2,21718",Salle accessible aux personnes à mobilité réduite,"3,85m"
2013,56222,C_56222100,Salle de Kerivo,Rue Joseph Le Bayon,56660,Saint-Jean-Brévelay,0,salle non équipée,Non,Non,Non,,,www.mairie-saint-jean-brevelay.fr/,Commune,Commune,60,nc,nc,"47,84","-2,73613",Salle et scène inaccessibles aux personnes à mobilité réduite,"2,65m"
2013,56222,C_56222101,Salle du Vertin,4 rue des Herbiers,56660,Saint-Jean-Brévelay,4,salle de spectacle multifonctions,Non,Non,Oui,"1 loge avec douche, sanitaires et lavabo. Accès direct sur scène par la porte en fond de scène ",,www.mairie-saint-jean-brevelay.fr/,Commune,Commune,nc,nc,892,"47,85","-2,72244",Salle accessible aux personnes à mobilité réduite,"3,60m"
2013,56223,C_56223100,Salle polyvalente Pierre Glet,20 rue des Frères Thébault,56350,Saint-Jean-la-Poterie,5,salle de spectacle multifonctions,Non,Non,Oui,,1 petite régie mobile,www.saintjeanlapoterie.fr/,Commune,Commune,nc,nc,625 pour l'ensemble du bâtiment,"47,63","-2,12112",Salle accessible aux personnes à mobilité réduite,"3,00m"
2013,56224,C_56224100,Salle polyvalente,Rue Savino,56140,Saint-Laurent-sur-Oust,0,salle non équipée,Non,Non,Non,,,www.saintlaurentsuroust.fr,Commune,Commune,nc,nc,nc,"47,8","-2,31762",Salle accessible aux personnes à mobilité réduite,"3,60m"
2013,56227,C_56227100,Salle polyvalente Sainte Thérèse,2 rue des Châtaigniers,56490,Saint-Malo-des-Trois-Fontaines,1,salle non équipée,Non,Non,Oui,,,,Commune,Commune,nc,nc,175,"48,01","-2,47",Salle accessible aux personnes à mobilité réduite,"2,45m"
2013,56228,C_56228100,Complexe polyvalent,Rue du Stade,56140,Saint-Marcel,3,salle peu équipée,Non,Non,Oui,,1 régie vitrée en fond de salle,,Commune,Commune,nc,nc,428 pour l'ensemble du bâtiment,"47,81","-2,41907",Salle accessible aux personnes à mobilité réduite,"2,80m"
2013,56229,C_56229100,Espace socioculturel,25 Avenue de la libération,56200,Saint Martin Sur Oust,5,salle de spectacle multifonctions,Non,Non,Oui,2 loges avec WC à part,,,Commune,Commune,nc,nc,392,"47,75","-2,25557",Salle accessible aux personnes à mobilité réduite,"3,40m"
2013,56230,C_56230100,Salle polyvalente,3 rue de l'Ecole,56910,Saint-Nicolas-du-Tertre,1,salle non équipée,Non,Non,Oui,,,,Commune,Commune,nc,nc,252,"47,8","-2,22404",Salle accessible aux personnes à mobilité réduite,"2,70m"
2013,56231,C_56231100,La Petite Scène,Place Mayeul,56250,Saint-Nolff,5,salle de spectacle multifonctions,Non,Non,Oui,"1 loge avec douche et lavabo, accessible aux personnes à mobilité réduite.",,www.saint-nolff.fr,Commune,Commune,450,300,nc,"47,7","-2,651779",Salle accessible aux personnes à mobilité réduite,"4,50m"
2013,56231,C_56231101,Le Moulin,Rue Lann Vrihan,56250,Saint-Nolff,0,salle non équipée,Non,Non,Non,,,www.saint-nolff.fr,Commune,Commune,80,40,nc,"47,7","-2,65812",Salle accessible aux personnes à mobilité réduite,"2,15m"
2013,56232,C_56232100,Complexe de l'Oust - Salle socioculturelle,3 rue de la Mairie,56350,Saint-Perreux,3,salle peu équipée,Non,Non,Oui,"Loge possible dans le local chaises côté jardin avec miroir, lavabo et accès extérieur",,www.saintperreux.free.fr/welcome/index.php,Commune,Commune,nc,nc,695,"47,67","-2,10494",Salle accessible aux personnes à mobilité réduite,"5,00m"
2013,56233,C_56233100,Salle du Mousker,Rue de l'Abbé Joseph Martin,56470,Saint-Philibert,4,salle de spectacle multifonctions,Non,Non,Oui,,1 régie vitrée,www.saint-philibert-morbihan.eu,Commune,Commune,nc,nc,354,"47,59","-3,00157",Salle accessible aux personnes à mobilité réduite,"3,60m"
2013,56234,C_56234100,Centre culturel,Rue Curie,56610,Saint Pierre Quiberon,3,salle peu équipée,Non,Non,Oui,,,www.saintpierrequiberon.net,Commune,Commune,nc,200,nc,"47,52","-3,13282",Salle accessible aux personnes à mobilité réduite,"3,75m"
2013,56236,C_56236100,Salle communale,Le Bourg,56120,Saint-Servant,2,salle peu équipée,Non,Non,Oui,,,,Commune,Commune,nc,nc,180,"47,52","-2,76721",Salle accessible aux personnes à mobilité réduite,"3,00m"
2013,56237,C_56237100,Salle des fêtes,Place de l'Eglise,56300,Saint-Thuriau,4,salle de spectacle multifonctions,Non,Non,Oui,1 réserve tables et 1 arrière-cuisine à cour et jardin pourraient servir de petites loges modestes,,www.saint-thuriau.fr,Commune,Commune,nc,nc,396,"48,02","-2,94891",Salle accessible aux personnes à mobilité réduite,"3,80m"
2013,56238,C_56238100,Salle des associations,14 rue du Fournil,56540,Saint-Tugdual,1,salle non équipée,Non,Non,Oui,,,,Commune,Commune,319,nc,329,"48,1","-3,33714",Salle accessible aux personnes à mobilité réduite,
2013,56238,C_56238101,Salle polyvalente,Le Bourg,56540,Saint-Tugdual,1,salle non équipée,Non,Non,Non,,,,Commune,Commune,nc,nc,150,"48,1","-3,33922",Salle accessible aux personnes à mobilité réduite,"2,80m"
2013,56240,C_56240100,L'Hermine,"Rue Père Marie-Joseph Coudrin, BP 14 ",56370,Sarzeau,6,salle de spectacle,Oui,Oui,Oui,2 loges avec douches,1 régie en salle,www.sarzeau.fr/vivre-au-quotidien/activites-culturelles/espace-culturel-lhermine/,Ville de Sarzeau,Communauté de Communes de la Presqu'île de Rhuys,900,501,nc,"47,52","-2,76944",Salle accessible aux personnes à mobilité réduite,"6,30m"
2013,56240,C_56240101,Maison Lesage,17 rue Saint-Vincent,56370,Sarzeau,0,salle non équipée,Non,Non,Non,,,www.sarzeau.fr,Commune,,nc,nc,nc,"47,53","-2,7664943",Salle inaccessible aux personnes à mobilité réduite,
2013,56240,C_56240102,Salle Armorique,"Rue Père Marie-Joseph Coudrin, BP 14 ",56370,Sarzeau,1,salle non équipée,Non,Non,Non,,,www.ccprhuys.fr,Ville de Sarzeau,Communauté de Communes de la Presqu'île de Rhuys,435,200,nc,"47,52","-2,76944",Salle accessible aux personnes à mobilité réduite,"4,00m"
2013,56240,C_56240103,"Salle haute des gardes, au château de Suscinio",Route du Duc Jean V,56370,Sarzeau,1,salle non équipée,Non,Non,Non,,,www.suscinio.info,Conseil Général du Morbihan,Morbihan Patrimoine Service (société privée),nc,nc,79 pour l'étage,"47,51","-2,728729",Salle et scène inaccessibles aux personnes à mobilité réduite,"4,45m"
2013,56242,C_56242100,Salle polyvalente,Coët-en-Fao,56160,Séglien,2,salle peu équipée,Non,Non,Oui,,,www.seglien.fr,Commune,Commune,nc,nc,341,"48,11","-3,15486",Salle et scène accessibles aux personnes à mobilité réduite,"2,45m"
2013,56243,C_56243100,Le Grain de Sel,"5 ter, Rues des écoles",56860,Séné,6,salle de spectacle,Oui,Oui,Oui,2 loges avec sanitaires communs,1 régie ouverte en fond de salle,www.legraindesel-sene.com,Commune,Commune,nc,256,nc,"47,62","-2,7357",Salle et scène accessibles aux personnes à mobilité réduite,"9,40m"
2013,56244,C_56244100,Maison de la commune,4 rue des Tilleuls,56460,Sérent,0,salle non équipée,Non,Non,Non,,,www.serent.fr,Commune,Commune,nc,nc,nc,"47,78","-2,50829",Salle accessible aux personnes à mobilité réduite,
2013,56244,C_56244101,Salle de spectacle,Place Saint-Pierre,56460,Sérent,4,salle de spectacle multifonctions,Non,Non,Oui,,,www.serent.fr,Paroisse,Commune,nc,nc,nc,"47,82","-2,505012",Salle accessible aux personnes à mobilité réduite,"4,75m"
2013,56244,C_56244102,Salle des fêtes,Chemin du Paradis,56460,Sérent,2,salle peu équipée,Non,Non,Oui,,,www.serent.fr,Commune,Commune,400,nc,nc,"47,82","-2,50396",Salle accessible aux personnes à mobilité réduite,"2,60m"
2013,56245,C_56245100,Salle polyvalente,Le Bourg,56480,Silfiac,1,salle non équipée,Non,Non,Oui,,,www.silfiac.fr,Commune,Commune,nc,200,nc,"48,15","-3,15682",Salle accessible aux personnes à mobilité réduite,
2013,56246,C_56246100,Salle polyvalente,Rue de Malachappe,56300,Le Sourn,2,salle peu équipée,Non,Non,Oui,,,www.lesourn.fr,Commune,Commune,nc,nc,691,"48,04","-2,98665",Salle accessible aux personnes à mobilité réduite,"2,55m"
2013,56247,C_56247100,Salle des fêtes,Les jardins d'Altenbruch,56250,Sulniac,3,salle peu équipée,Non,Non,Oui,,,www.sulniac.fr,Commune,Commune,499,399,nc,"47,68","-2,56753",Salle accessible aux personnes à mobilité réduite,"3,00m"
2013,56251,C_56251100,La Landière,Rue des Charrons,56450,Theix,1,salle non équipée,Non,Non,Non,,,www.theix.org,Commune,Commune,nc,nc,274,"47,63","-2,65889",Salle accessible aux personnes à mobilité réduite,"3,50m"
2013,56251,C_56251101,Salle Marcel Guého,Rue Jean Moulin,56450,Theix,5,salle de spectacle multifonctions,Non,Non,Oui,"1 petit espace coulisse à jardin, avec miroir, lavabo et accès extérieur et 1 pièce en fond de salle ",1 régie vitrée en fond de salle. Console: 8 micros 12 pistes. Régie lumière avec abonnement VTHR,www.theix.org,Commune,Commune,non,180,280,"47,63","-2,64998",Salle accessible aux personnes à mobilité réduite,"2,40m"
2013,56251,C_56251102,Salle Pierre Dosse,Rue Joseph Le Digabel,56450,Theix,3,salle peu équipée,Non,Non,Non,"Des vestiaires pourraient servir de loge, accessible par le fond de la salle.",,www.theix.org,Commune,Commune,nc,200,1500 pour l'ensemble du bâtiment,"47,63","-2,65444",Salle accessible aux personnes à mobilité réduite,"5,50m"
2013,56252,C_56252100,Salle communale,2 rue de la Mairie,56370,Le-Tour-du-Parc,0,salle non équipée,Non,Non,Non,,,www.letourduparc.fr,Commune,Commune,110,80,nc,"47,53","-2,644851",Salle accessible aux personnes à mobilité réduite,"4,00m"
2013,56253,C_56253100,Salle polyvalente,rue de la Fontaine,56140,Tréal,3,salle peu équipée,Non,Non,Oui,,,www.treal-sup.fr,Commune,Commune,450,300,455,"47,84","-2,22282",Salle accessible aux personnes à mobilité réduite,"2,90m"
2013,56254,C_56254100,Salle multi activités,Place Saint-Christophe,56250,Trédion,0,salle non équipée,Non,Non,Non,,,,Commune,Commune,125,125,130,"47,79","-2,59144",Salle accessible aux personnes à mobilité réduite,"2,75m"
2013,56254,C_56254101,Salle polyvalente,Rue du Château,56250,Trédion,0,salle non équipée,Non,Non,Non,,,,Commune,Commune,120,120,126,"47,79","-2,59442",Salle accessible aux personnes à mobilité réduite,"3,15m"
2013,56256,C_56256100,Salle communale,3 rue de Brocéliande,56430,Tréhorenteuc,0,salle non équipée,Non,Non,Non,,,,Commune,Commune,90,70,nc,"48,01","-2,28759",Salle accessible aux personnes à mobilité réduite,"3,50m"
2013,56257,C_56257100,Salle polyvalente,Rue René Sohier,56490,La Trinité-Porho?t,2,salle peu équipée,Non,Non,Oui,"1 loge avec sanitaire, accès à cour à la scène",,,Commune,Commune,650,450,660,"48,09","-2,54725",Salle et scène accessibles aux personnes à mobilité réduite,"3,70m"
2013,56258,C_56258100,Salle du Voulien,Rue du Voulien,56470,La Trinité-sur-Mer,2,salle peu équipée,Non,Non,Oui,,,www.la-trinite-sur-mer.fr,Commune,Commune,nc,nc,220,"47,59","-3,02989",Salle accessible aux personnes à mobilité réduite,"4,30m"
2013,56258,C_56258101,Salle Saint-Joseph,Rue des Frères Kermorvant,56470,La Trinité-sur-Mer,3,salle peu équipée,Non,Non,Oui,"1 loge commune avec WC, coin cuisine et accès extérieur",,www.la-trinite-sur-mer.fr,Commune,Commune,nc,nc,nc,"47,59","-3,02804",Salle accessible aux personnes à mobilité réduite,"3,70m"
2013,56259,C_56259100,Salle polyvalente,22 rue d'Auvergne,56190,La Trinité-sur-Mer,0,salle non équipée,Non,Non,Non,,,,Commune,Commune,nc,nc,355,"47,61","-2,60007",Salle accessible aux personnes à mobilité réduite,"3,45m"
2013,56260,C_56260100,Auditorium des Carmes,Place Théodore Decker,56000,Vannes,5,salle de spectacle multifonctions,Non,Oui,Oui,3 loges avec une douche et un WC indépendant accessible aux personnes à mobilité réduite,1 régie en fond de salle,www.mairie-vannes.fr,Commune,Commune,non,242,242,"47,65","-2,759627",Salle et scène accessibles aux personnes à mobilité réduite,"8,35m"
2013,56260,C_56260101,Salle Lesage au sein du Palais des Arts et des Congrès,Place de Bretagne,56000,Vannes,6,salle de spectacle,Oui,Oui,Oui,"6 loges 3 personnes, 1 grand foyer, 1 loge collective. Accès par fond de scène cour et jardin niveau inférieur",1 régie en fond de salle et un espace réservé dans les gradins.,www.mairie-vannes.fr,Commune,Commune,non,848,852,"47,66","-2,76074",Salle et scène accessibles aux personnes à mobilité réduite,"16,40m"
2013,56260,C_56260102,Salle Ropartz au sein du Palais des Arts et des Congrès,Place de Bretagne,56000,Vannes,6,salle de spectacle,Oui,Oui,Oui,"2 loges de 4 personnes chacune avec WC et douches. Accès côté cour, 1er étage.",1 régie vitrée en fond de salle,www.mairie-vannes.fr,Commune,Commune,non,214,314,"47,66","-2,76074",Salle et scène accessibles aux personnes à mobilité réduite,"7,60m"
2013,56263,C_56263100,Salle polyvalente,Rue du Parc,56400,Sainte Anne d'Auray,0,salle non équipée,Non,Non,Non,,,www.sainte-anne-auray.com,Commune,Commune,482,200,492,"47,7","-2,95584",Salle accessible aux personnes à mobilité réduite,"3,30m"
2016,56175,C_56175102 ,Espace Les Hermines,Rue Joseph Evenas,56400,Plumergat,5,salle de spectacle multifonctions,Non,Oui,Oui,"2 loges avec fenêtre, lavabo et miroir",,www.plumergat.fr,Commune,Commune,,516,516,"47,44","-2,55293",Salle et scène accessibles aux personnes à mobilité réduite,6m
2016,56117,C_56117100 ,"Espace ""La Maillette""",Rue des Vénètes,56500,Locminé,6,salle de spectacle,Non,Oui,Oui,"1 loge individuelle, 2 loges collectives, 1 catering. Douche, lavabo, WC, miroir et penderie dans chacune d'entre elles. Système son scène-loges.",Régie ouverte en fond de salle,,Commune et Communauté de Communes,Commune,1000,800,,"47,87","-2,83048",Salle et scène accessibles aux personnes à mobilité réduite,"5,50m"
2016,56007,C_56007102 ,Kendalc'h,"Porte Océane, 1 rue de Suède",56400,Auray,2,salle peu équipée,Non,Oui,Non,Non,Non,www.kendalch.bzh,Association Confédération Kendalc'h,Association Confédération Kendalc'h,,,202,"47,66","-3,00994",Salle accessible aux personnes à mobilité réduite,
2016,56010,C_56010102 ,Le Quatro,Rue d'Auray,56150,Baud,6,salle de spectacle,Non,Oui,Oui,Oui,Régie ouverte en fond de salle,,Commune,Commune,,70,150,"47,87","-3,01729",4 PMR ,
2016,56123,C_56123100 ,Le Palis-Bleu,Rue du Stade,56220,Malansac,5,salle de spectacle multifonctions,Non,Non,Oui,"2 loges avec WC et douches en commun, miroir, point d'eau, fenêtre et retour son",,,Commune,Commune,450,"242 avec gradins, 324 mode spectacle sans gradins, 252 avec scène et piste de danse",582,"47,68","-2,30198",Salle et scène accessibles au personnes à mobilité réduite,"5,90m"
